{"type":"FeatureCollection", "features": [
{"type":"Feature","geometry":{"type":"Polygon","coordinates":[[[110.925,20],[109.656,20.02],[108.647,19.344],[108.664,18.504],[109.698,18.195],[110.46,18.721],[110.925,20]]]},"properties":{"shapeName":"Hainan Province","shapeISO":"CHN","shapeID":"43563684B67556328368055","shapeGroup":"CHN","shapeType":"ADM1"}},
{"type":"Feature","geometry":{"type":"Polygon","coordinates":[[[112.001,24.857],[111.511,25.133],[111.13,26.469],[109.538,26.126],[107.843,25.286],[107.16,25.565],[106.035,24.781],[104.581,24.817],[105.537,23.283],[107.534,21.623],[108.525,21.946],[109.742,21.547],[111.41,22.964],[112.001,24.857]]]},"properties":{"shapeName":"Guangxi Zhuang Autonomous Region","shapeISO":"CHN","shapeID":"43563684B59914390554750","shapeGroup":"CHN","shapeType":"ADM1"}},
{"type":"Feature","geometry":{"type":"Polygon","coordinates":[[[120.541,27.287],[119.048,27.552],[118.591,28.39],[117.396,27.939],[116.124,25.716],[115.968,24.973],[117.033,24.291],[117.222,23.643],[118.65,24.602],[119.551,25.664],[119.682,26.624],[120.541,27.287]]]},"properties":{"shapeName":"Fujian Province","shapeISO":"CHN","shapeID":"43563684B30737817496648","shapeGroup":"CHN","shapeType":"ADM1"}},
{"type":"Feature","geometry":{"type":"Polygon","coordinates":[[[104.581,24.817],[103.851,26.669],[103.902,27.443],[105.369,27.866],[104.459,28.115],[103.022,27.49],[103.06,26.518],[101.682,26.323],[100.632,27.976],[99.392,28.246],[99.121,29.34],[98.154,28.213],[98.761,27.568],[98.756,25.92],[97.891,25.3],[97.773,24.239],[98.748,23.935],[99.504,23.121],[99.219,22.153],[101.782,21.171],[101.712,22.457],[103.405,22.792],[103.995,22.51],[105.537,23.283],[104.581,24.817]]]},"properties":{"shapeName":"Yunnan Province","shapeISO":"CHN","shapeID":"43563684B84540832148656","shapeGroup":"CHN","shapeType":"ADM1"}},
{"type":"Feature","geometry":{"type":"Polygon","coordinates":[[[109.538,26.126],[109.337,28.613],[108.363,29.188],[106.372,28.675],[105.369,27.866],[103.902,27.443],[103.851,26.669],[104.581,24.817],[106.035,24.781],[107.16,25.565],[107.843,25.286],[109.538,26.126]]]},"properties":{"shapeName":"Guizhou Province","shapeISO":"CHN","shapeID":"43563684B78583622565599","shapeGroup":"CHN","shapeType":"ADM1"}},
{"type":"Feature","geometry":{"type":"Polygon","coordinates":[[[118.591,28.39],[118.291,29.513],[117.355,29.974],[116.246,29.89],[114.049,29.197],[114.318,28.459],[113.678,27.616],[114.162,26.676],[114.044,25.544],[114.483,24.588],[115.968,24.973],[116.124,25.716],[117.396,27.939],[118.591,28.39]]]},"properties":{"shapeName":"Jiangxi Province","shapeISO":"CHN","shapeID":"43563684B87813050901813","shapeGroup":"CHN","shapeType":"ADM1"}},
{"type":"Feature","geometry":{"type":"Polygon","coordinates":[[[112.001,24.857],[112.289,25.264],[114.044,25.544],[114.162,26.676],[113.678,27.616],[114.318,28.459],[114.049,29.197],[112.904,29.866],[110.905,30.236],[109.329,29.24],[109.337,28.613],[109.538,26.126],[111.13,26.469],[111.511,25.133],[112.001,24.857]]]},"properties":{"shapeName":"Hunan Province","shapeISO":"CHN","shapeID":"43563684B64987462919315","shapeGroup":"CHN","shapeType":"ADM1"}},
{"type":"Feature","geometry":{"type":"Polygon","coordinates":[[[120.541,27.287],[121.615,28.308],[121.983,29.764],[121.418,30.71],[121.002,31.093],[119.74,31.225],[118.291,29.513],[118.591,28.39],[119.048,27.552],[120.541,27.287]]]},"properties":{"shapeName":"Zhejiang Province","shapeISO":"CHN","shapeID":"43563684B73528730180553","shapeGroup":"CHN","shapeType":"ADM1"}},
{"type":"Feature","geometry":{"type":"Polygon","coordinates":[[[121.418,30.71],[121.375,31.55],[121.002,31.093],[121.418,30.71]]]},"properties":{"shapeName":"Shanghai Municipality","shapeISO":"CHN","shapeID":"43563684B32591653033375","shapeGroup":"CHN","shapeType":"ADM1"}},
{"type":"Feature","geometry":{"type":"Polygon","coordinates":[[[109.337,28.613],[109.329,29.24],[108.532,30.54],[110.206,31.031],[109.731,31.972],[108.699,32.3],[108.735,31.705],[107.156,30.17],[105.82,30.464],[105.373,29.728],[106.372,28.675],[108.363,29.188],[109.337,28.613]]]},"properties":{"shapeName":"Chongqing Municipality","shapeISO":"CHN","shapeID":"43563684B97743196909507","shapeGroup":"CHN","shapeType":"ADM1"}},
{"type":"Feature","geometry":{"type":"Polygon","coordinates":[[[116.246,29.89],[115.486,31.518],[113.339,32.543],[111.615,32.742],[111.088,33.382],[109.725,33.394],[109.731,31.972],[110.206,31.031],[108.532,30.54],[109.329,29.24],[110.905,30.236],[112.904,29.866],[114.049,29.197],[116.246,29.89]]]},"properties":{"shapeName":"Hubei Province","shapeISO":"CHN","shapeID":"43563684B41908353419915","shapeGroup":"CHN","shapeType":"ADM1"}},
{"type":"Feature","geometry":{"type":"Polygon","coordinates":[[[105.369,27.866],[106.372,28.675],[105.373,29.728],[105.82,30.464],[107.156,30.17],[108.735,31.705],[108.699,32.3],[105.826,32.994],[105.199,32.654],[103.904,33.34],[103.043,34.324],[102.321,33.786],[100.991,32.746],[99.918,33.334],[97.661,33.275],[97.43,32.832],[98.293,32.387],[98.988,30.764],[99.121,29.34],[99.392,28.246],[100.632,27.976],[101.682,26.323],[103.06,26.518],[103.022,27.49],[104.459,28.115],[105.369,27.866]]]},"properties":{"shapeName":"Sichuan Province","shapeISO":"CHN","shapeID":"43563684B14397599951889","shapeGroup":"CHN","shapeType":"ADM1"}},
{"type":"Feature","geometry":{"type":"Polygon","coordinates":[[[118.291,29.513],[119.74,31.225],[118.941,31.341],[118.831,32.423],[118.097,33.377],[116.456,34.732],[116.27,34.707],[115.488,33.631],[115.486,31.518],[116.246,29.89],[117.355,29.974],[118.291,29.513]]]},"properties":{"shapeName":"Anhui Province","shapeISO":"CHN","shapeID":"43563684B75549295130005","shapeGroup":"CHN","shapeType":"ADM1"}},
{"type":"Feature","geometry":{"type":"Polygon","coordinates":[[[121.002,31.093],[121.375,31.55],[120.332,34.265],[119.442,35.186],[118.498,34.545],[116.456,34.732],[118.097,33.377],[118.831,32.423],[118.941,31.341],[119.74,31.225],[121.002,31.093]]]},"properties":{"shapeName":"Jiangsu Province","shapeISO":"CHN","shapeID":"43563684B64367354813847","shapeGroup":"CHN","shapeType":"ADM1"}},
{"type":"Feature","geometry":{"type":"Polygon","coordinates":[[[115.486,31.518],[115.488,33.631],[116.27,34.707],[114.949,35.237],[115.549,36.22],[113.813,36.462],[113.665,35.698],[110.44,34.72],[111.088,33.382],[111.615,32.742],[113.339,32.543],[115.486,31.518]]]},"properties":{"shapeName":"Henan Province","shapeISO":"CHN","shapeID":"43563684B96917371447908","shapeGroup":"CHN","shapeType":"ADM1"}},
{"type":"Feature","geometry":{"type":"Polygon","coordinates":[[[99.121,29.34],[98.988,30.764],[98.293,32.387],[97.43,32.832],[96.774,31.768],[95.606,31.855],[94.726,32.593],[93.529,32.55],[90.451,33.138],[89.562,34.265],[89.82,36.299],[87.452,36.504],[84.204,35.435],[82.296,35.722],[81.896,35.253],[80.205,35.34],[79.773,34.407],[78.984,34.356],[79.306,32.511],[78.758,31.889],[79.081,31.001],[81.088,30.162],[82.616,29.924],[83.699,28.99],[86.36,27.861],[87.76,27.755],[89.978,28.271],[92.06,27.703],[92.132,26.888],[93.734,27.012],[95.868,28.286],[97.287,27.746],[98.154,28.213],[99.121,29.34]]]},"properties":{"shapeName":"Tibet Autonomous Region","shapeISO":"CHN","shapeID":"43563684B19802372559419","shapeGroup":"CHN","shapeType":"ADM1"}},
{"type":"Feature","geometry":{"type":"Polygon","coordinates":[[[116.456,34.732],[118.498,34.545],[119.442,35.186],[121.58,37.457],[120.88,37.885],[119.659,37.137],[117.883,38.303],[116.136,37.451],[115.549,36.22],[114.949,35.237],[116.27,34.707],[116.456,34.732]]]},"properties":{"shapeName":"Shandong Province","shapeISO":"CHN","shapeID":"43563684B58995436924100","shapeGroup":"CHN","shapeType":"ADM1"}},
{"type":"Feature","geometry":{"type":"Polygon","coordinates":[[[102.321,33.786],[101.948,34.962],[102.995,35.941],[102.366,37.495],[99.137,39.006],[97.122,39.208],[96.45,38.126],[93.306,38.664],[92.646,39.035],[90.694,38.688],[90.339,37.833],[91.179,37.456],[90.79,36.527],[89.82,36.299],[89.562,34.265],[90.451,33.138],[93.529,32.55],[94.726,32.593],[95.606,31.855],[96.774,31.768],[97.43,32.832],[97.661,33.275],[99.918,33.334],[100.991,32.746],[102.321,33.786]]]},"properties":{"shapeName":"Qinghai Province","shapeISO":"CHN","shapeID":"43563684B46172434476792","shapeGroup":"CHN","shapeType":"ADM1"}},
{"type":"Feature","geometry":{"type":"Polygon","coordinates":[[[107.581,37.826],[106.636,38.386],[104.543,37.574],[105.295,36.975],[105.536,35.837],[106.365,35.42],[106.749,37.282],[107.347,37.219],[107.581,37.826]]]},"properties":{"shapeName":"Ningxia Ningxia Hui Autonomous Region","shapeISO":"CHN","shapeID":"43563684B64666899633249","shapeGroup":"CHN","shapeType":"ADM1"}},
{"type":"Feature","geometry":{"type":"Polygon","coordinates":[[[109.731,31.972],[109.725,33.394],[111.088,33.382],[110.44,34.72],[110.495,37.098],[111.272,39.503],[110.207,39.415],[108.761,37.8],[107.581,37.826],[107.347,37.219],[108.783,36.428],[106.767,34.49],[105.826,32.994],[108.699,32.3],[109.731,31.972]]]},"properties":{"shapeName":"Shaanxi Province","shapeISO":"CHN","shapeID":"43563684B62959128536432","shapeGroup":"CHN","shapeType":"ADM1"}},
{"type":"Feature","geometry":{"type":"Polygon","coordinates":[[[118.119,39.209],[117.495,40.3],[117.297,40.153],[117.033,39.775],[116.904,39.706],[117.648,38.689],[118.119,39.209]]]},"properties":{"shapeName":"Tianjin Municipality","shapeISO":"CHN","shapeID":"43563684B84701301190484","shapeGroup":"CHN","shapeType":"ADM1"}},
{"type":"Feature","geometry":{"type":"Polygon","coordinates":[[[113.813,36.462],[114.212,37.71],[113.668,38.676],[114.622,39.591],[114.212,40.792],[112.381,40.368],[111.272,39.503],[110.495,37.098],[110.44,34.72],[113.665,35.698],[113.813,36.462]]]},"properties":{"shapeName":"Shanxi Province","shapeISO":"CHN","shapeID":"43563684B34303967365755","shapeGroup":"CHN","shapeType":"ADM1"}},
{"type":"Feature","geometry":{"type":"Polygon","coordinates":[[[117.033,39.775],[117.297,40.153],[117.495,40.3],[116.752,41.073],[115.934,40.628],[116.904,39.706],[117.033,39.775]]]},"properties":{"shapeName":"Beijing Municipality","shapeISO":"CHN","shapeID":"43563684B17418114845297","shapeGroup":"CHN","shapeType":"ADM1"}},
{"type":"Feature","geometry":{"type":"Polygon","coordinates":[[[105.826,32.994],[106.767,34.49],[108.783,36.428],[107.347,37.219],[106.749,37.282],[106.365,35.42],[105.536,35.837],[105.295,36.975],[104.543,37.574],[103.635,37.799],[104.219,39.216],[101.608,38.923],[99.817,39.979],[100.137,40.915],[98.235,40.615],[97.428,41.461],[97.367,42.546],[96.404,42.66],[96.367,42.223],[94.635,41.542],[92.948,40.42],[92.646,39.035],[93.306,38.664],[96.45,38.126],[97.122,39.208],[99.137,39.006],[102.366,37.495],[102.995,35.941],[101.948,34.962],[102.321,33.786],[103.043,34.324],[103.904,33.34],[105.199,32.654],[105.826,32.994]]]},"properties":{"shapeName":"Gansu Province","shapeISO":"CHN","shapeID":"43563684B11053367304830","shapeGroup":"CHN","shapeType":"ADM1"}},
{"type":"Feature","geometry":{"type":"Polygon","coordinates":[[[115.549,36.22],[116.136,37.451],[117.883,38.303],[117.648,38.689],[116.904,39.706],[115.934,40.628],[116.752,41.073],[117.495,40.3],[118.119,39.209],[119.013,39.223],[119.971,40.074],[119.285,41.387],[118.47,41.431],[117.82,42.663],[116.899,42.051],[114.04,41.55],[114.212,40.792],[114.622,39.591],[113.668,38.676],[114.212,37.71],[113.813,36.462],[115.549,36.22]]]},"properties":{"shapeName":"Hebei Province","shapeISO":"CHN","shapeID":"43563684B58229551045164","shapeGroup":"CHN","shapeType":"ADM1"}},
{"type":"Feature","geometry":{"type":"Polygon","coordinates":[[[119.971,40.074],[121.22,40.956],[121.635,39.144],[124.112,39.847],[125.78,40.863],[125.402,42.259],[123.784,43.44],[122.865,42.791],[120.61,42.193],[119.621,42.465],[119.285,41.387],[119.971,40.074]]]},"properties":{"shapeName":"Liaoning Province","shapeISO":"CHN","shapeID":"43563684B26929678147954","shapeGroup":"CHN","shapeType":"ADM1"}},
{"type":"Feature","geometry":{"type":"Polygon","coordinates":[[[125.78,40.863],[126.63,41.635],[128.196,41.38],[128.683,41.974],[130.363,42.588],[131.322,43.452],[130.169,43.879],[128.956,43.587],[127.875,44.109],[127.029,45.17],[124.514,45.527],[123.167,46.292],[122.142,44.757],[123.162,44.557],[123.784,43.44],[125.402,42.259],[125.78,40.863]]]},"properties":{"shapeName":"Jilin Province","shapeISO":"CHN","shapeID":"43563684B3982601277390","shapeGroup":"CHN","shapeType":"ADM1"}},
{"type":"Feature","geometry":{"type":"Polygon","coordinates":[[[89.82,36.299],[90.79,36.527],[91.179,37.456],[90.339,37.833],[90.694,38.688],[92.646,39.035],[92.948,40.42],[94.635,41.542],[96.367,42.223],[96.404,42.66],[95.375,44.174],[93.516,44.877],[90.845,45.13],[91.051,46.676],[90.103,47.798],[88.928,47.903],[87.538,49.053],[85.774,48.434],[85.579,47.091],[83.256,47.256],[82.34,45.568],[80.079,45.086],[80.785,43.181],[80.254,42.151],[78.065,41.105],[76.799,41.076],[73.893,40.053],[73.893,38.591],[74.787,38.561],[74.955,37.606],[76.212,35.83],[77.909,35.451],[78.984,34.356],[79.773,34.407],[80.205,35.34],[81.896,35.253],[82.296,35.722],[84.204,35.435],[87.452,36.504],[89.82,36.299]]]},"properties":{"shapeName":"Xinjiang Uyghur Autonomous Region","shapeISO":"CHN","shapeID":"43563684B50492231896073","shapeGroup":"CHN","shapeType":"ADM1"}},
{"type":"Feature","geometry":{"type":"Polygon","coordinates":[[[107.581,37.826],[108.761,37.8],[110.207,39.415],[111.272,39.503],[112.381,40.368],[114.212,40.792],[114.04,41.55],[116.899,42.051],[117.82,42.663],[118.47,41.431],[119.285,41.387],[119.621,42.465],[120.61,42.193],[122.865,42.791],[123.784,43.44],[123.162,44.557],[122.142,44.757],[123.167,46.292],[122.648,47.582],[125.278,49.229],[125.947,51.19],[123.399,51.333],[122.84,52.254],[121.337,52.662],[121.593,53.406],[120.148,52.831],[120.754,52.241],[119.191,50.423],[117.718,49.576],[116.728,49.849],[115.599,47.904],[118.46,47.99],[119.729,47.2],[116.847,46.457],[115.642,45.447],[113.647,44.811],[111.92,45.071],[112.028,43.836],[109.423,42.468],[107.395,42.46],[105.003,41.569],[102.229,42.093],[101.848,42.411],[97.367,42.546],[97.428,41.461],[98.235,40.615],[100.137,40.915],[99.817,39.979],[101.608,38.923],[104.219,39.216],[103.635,37.799],[104.543,37.574],[106.636,38.386],[107.581,37.826]]]},"properties":{"shapeName":"Inner Mongolia Autonomous Region","shapeISO":"CHN","shapeID":"43563684B95381459098578","shapeGroup":"CHN","shapeType":"ADM1"}},
{"type":"Feature","geometry":{"type":"Polygon","coordinates":[[[131.322,43.452],[131.056,44.778],[132.942,44.966],[133.863,46.209],[134.307,48.362],[132.492,47.718],[130.953,47.725],[130.265,48.903],[127.745,49.654],[127.416,50.649],[125.667,53.086],[123.644,53.571],[121.593,53.406],[121.337,52.662],[122.84,52.254],[123.399,51.333],[125.947,51.19],[125.278,49.229],[122.648,47.582],[123.167,46.292],[124.514,45.527],[127.029,45.17],[127.875,44.109],[128.956,43.587],[130.169,43.879],[131.322,43.452]]]},"properties":{"shapeName":"Heilongjiang Province","shapeISO":"CHN","shapeID":"43563684B55920014778896","shapeGroup":"CHN","shapeType":"ADM1"}},
{"type":"Feature","geometry":{"type":"Polygon","coordinates":[[[113.622,22.204],[113.497,22.19],[113.562,22.091],[113.622,22.204]]]},"properties":{"shapeName":"Macau Special Administrative Region","shapeISO":"CHN","shapeID":"43563684B97104103456250","shapeGroup":"CHN","shapeType":"ADM1"}},
{"type":"Feature","geometry":{"type":"Polygon","coordinates":[[[114.04,22.534],[114.105,22.326],[114.414,22.391],[114.277,22.604],[114.062,22.542],[114.04,22.534]]]},"properties":{"shapeName":"Hong Kong Special Administrative Region","shapeISO":"CHN","shapeID":"43563684B69230098435171","shapeGroup":"CHN","shapeType":"ADM1"}},
{"type":"Feature","geometry":{"type":"Polygon","coordinates":[[[109.742,21.547],[110.213,21.049],[111.766,21.743],[113.011,21.922],[114.04,22.534],[114.062,22.542],[114.788,22.802],[115.845,22.789],[117.222,23.643],[117.033,24.291],[115.968,24.973],[114.483,24.588],[114.044,25.544],[112.289,25.264],[112.001,24.857],[111.41,22.964],[109.742,21.547]]]},"properties":{"shapeName":"Guangdong Province","shapeISO":"CHN","shapeID":"43563684B38891657012300","shapeGroup":"CHN","shapeType":"ADM1"}}
]}