{"type":"FeatureCollection", "features": [
{"type":"Feature","geometry":{"type":"Polygon","coordinates":[[[-5.977,55.057],[-6.028,55.162],[-6.48,55.251],[-6.738,55.171],[-6.964,55.162],[-7.048,55.052],[-7.39,55.018],[-7.449,54.867],[-8.151,54.437],[-7.855,54.222],[-7.612,54.146],[-7.281,54.124],[-7.147,54.227],[-7.188,54.336],[-7.028,54.418],[-6.815,54.226],[-6.644,54.18],[-6.663,54.07],[-6.396,54.061],[-6.292,54.112],[-6.019,54.041],[-5.821,54.244],[-5.656,54.234],[-5.54,54.319],[-5.681,54.578],[-5.587,54.675],[-5.979,54.985],[-5.977,55.057]]]},"properties":{"shapeName":"Northern Ireland","shapeISO":"GB-NIR","shapeID":"14339913B6930312138089","shapeGroup":"GBR","shapeType":"ADM1"}},
{"type":"Feature","geometry":{"type":"MultiPolygon","coordinates":[[[[-1.3,50.766],[-1.487,50.667],[-1.295,50.575],[-1.11,50.721],[-1.3,50.766]]],[[[-2.666,51.639],[-3.015,51.317],[-3.002,51.233],[-3.277,51.181],[-3.789,51.243],[-4.2,51.197],[-4.299,51.003],[-4.532,51.001],[-4.568,50.779],[-4.796,50.602],[-5.03,50.545],[-5.053,50.435],[-5.433,50.196],[-5.248,49.983],[-4.85,50.233],[-4.752,50.331],[-4.308,50.361],[-3.95,50.309],[-3.719,50.206],[-3.527,50.345],[-3.496,50.542],[-3.254,50.674],[-2.891,50.731],[-2.479,50.583],[-2.413,50.633],[-2.048,50.581],[-1.867,50.717],[-1.348,50.786],[-0.745,50.765],[-0.216,50.828],[0.251,50.737],[0.366,50.817],[0.784,50.932],[0.959,50.911],[1.009,51.032],[1.374,51.141],[1.418,51.393],[0.997,51.348],[0.683,51.474],[0.908,51.583],[0.947,51.687],[1.574,52.091],[1.755,52.476],[1.742,52.634],[1.609,52.787],[1.3,52.931],[1.051,52.967],[0.55,52.973],[0.367,52.8],[0.037,52.906],[0.336,53.098],[0.321,53.267],[0.155,53.486],[-0.203,53.638],[0.094,53.682],[-0.145,53.896],[-0.167,54.095],[-0.36,54.245],[-0.567,54.477],[-0.791,54.559],[-1.167,54.642],[-1.304,54.777],[-1.36,54.968],[-1.491,55.099],[-1.644,55.578],[-2.034,55.811],[-2.241,55.651],[-2.176,55.47],[-2.488,55.35],[-2.718,55.169],[-3.057,54.987],[-3.282,54.941],[-3.575,54.648],[-3.636,54.516],[-3.422,54.331],[-3.239,54.107],[-2.894,54.194],[-2.811,54.113],[-2.888,53.948],[-3.037,53.92],[-3.057,53.776],[-2.921,53.732],[-3.104,53.558],[-3.172,53.401],[-3.101,53.267],[-2.925,53.19],[-2.833,52.998],[-3.097,52.928],[-3.156,52.799],[-3.023,52.715],[-3.208,52.418],[-2.991,52.323],[-3.127,52.13],[-3.067,51.983],[-2.878,51.932],[-2.674,51.802],[-2.666,51.639]]]]},"properties":{"shapeName":"England","shapeISO":"GB-ENG","shapeID":"14339913B95766344400054","shapeGroup":"GBR","shapeType":"ADM1"}},
{"type":"Feature","geometry":{"type":"MultiPolygon","coordinates":[[[[-1.306,60.611],[-1.486,60.543],[-1.415,60.412],[-1.68,60.236],[-1.465,60.156],[-1.293,60.177],[-1.067,60.426],[-1.349,60.533],[-1.306,60.611]]],[[[-2.034,55.811],[-2.144,55.916],[-2.319,55.93],[-2.632,56.052],[-2.787,56.065],[-3.078,55.947],[-3.18,56.066],[-2.968,56.204],[-2.803,56.19],[-2.607,56.277],[-2.846,56.363],[-2.544,56.565],[-2.405,56.77],[-2.22,56.878],[-2.058,57.12],[-1.991,57.32],[-1.782,57.464],[-1.834,57.614],[-2.013,57.697],[-2.512,57.668],[-2.878,57.703],[-3.026,57.665],[-3.29,57.722],[-4.003,57.6],[-3.831,57.81],[-4.06,57.824],[-3.964,57.97],[-3.177,58.334],[-3.065,58.468],[-3.04,58.635],[-3.398,58.65],[-3.778,58.571],[-4.029,58.584],[-4.233,58.534],[-4.679,58.552],[-4.991,58.616],[-5.179,58.377],[-5.111,58.266],[-5.376,58.224],[-5.287,58.095],[-5.35,57.926],[-5.796,57.84],[-5.776,57.69],[-5.864,57.497],[-5.818,57.375],[-5.612,57.267],[-5.888,56.886],[-6.128,56.761],[-5.901,56.557],[-5.681,56.508],[-5.493,56.613],[-5.42,56.458],[-5.637,56.294],[-5.547,56.245],[-5.754,55.298],[-5.544,55.349],[-5.569,55.43],[-5.423,55.723],[-5.22,55.839],[-4.986,55.873],[-4.898,55.704],[-4.623,55.501],[-4.842,55.324],[-4.866,55.225],[-5.056,55.025],[-5.138,54.854],[-4.842,54.866],[-4.516,54.713],[-4.156,54.782],[-3.985,54.771],[-3.553,54.978],[-3.057,54.987],[-2.718,55.169],[-2.488,55.35],[-2.176,55.47],[-2.241,55.651],[-2.034,55.811]]],[[[-3.005,59.065],[-3.315,59.136],[-3.365,58.996],[-3.207,58.917],[-3.005,59.065]]],[[[-5.114,55.442],[-5.09,55.556],[-5.28,55.719],[-5.396,55.612],[-5.355,55.507],[-5.114,55.442]]],[[[-5.79,56.508],[-5.953,56.524],[-6.127,56.651],[-6.332,56.552],[-6.125,56.477],[-6.316,56.272],[-5.839,56.313],[-5.65,56.439],[-5.79,56.508]]],[[[-6.148,57.504],[-6.327,57.702],[-6.642,57.451],[-6.291,57.168],[-6.023,57.202],[-6.148,57.504]]],[[[-5.962,55.805],[-5.697,56.105],[-5.948,56.036],[-6.092,55.878],[-5.962,55.805]]],[[[-6.104,55.841],[-6.343,55.783],[-6.267,55.655],[-6.026,55.682],[-6.104,55.841]]],[[[-6.32,58.205],[-6.191,58.339],[-6.309,58.48],[-6.803,58.296],[-7.12,58.124],[-6.945,57.872],[-6.967,57.743],[-6.375,58.027],[-6.32,58.205]]],[[[-7.166,57.669],[-7.387,57.64],[-7.384,57.426],[-7.179,57.477],[-7.166,57.669]]]]},"properties":{"shapeName":"Scotland","shapeISO":"GB-SCT","shapeID":"14339913B23556801435424","shapeGroup":"GBR","shapeType":"ADM1"}},
{"type":"Feature","geometry":{"type":"MultiPolygon","coordinates":[[[[-3.101,53.267],[-3.363,53.352],[-3.615,53.291],[-3.776,53.326],[-4.184,53.211],[-4.369,53.028],[-4.716,52.853],[-4.519,52.788],[-4.401,52.888],[-4.135,52.887],[-4.028,52.72],[-4.114,52.604],[-4.057,52.482],[-4.22,52.259],[-4.517,52.139],[-4.735,52.109],[-4.852,52.025],[-5.292,51.908],[-5.138,51.858],[-4.948,51.601],[-4.722,51.655],[-4.665,51.728],[-4.44,51.739],[-4.303,51.673],[-4.304,51.562],[-3.993,51.565],[-3.85,51.615],[-3.717,51.48],[-3.553,51.401],[-3.177,51.405],[-3.121,51.489],[-2.903,51.534],[-2.666,51.639],[-2.674,51.802],[-2.878,51.932],[-3.067,51.983],[-3.127,52.13],[-2.991,52.323],[-3.208,52.418],[-3.023,52.715],[-3.156,52.799],[-3.097,52.928],[-2.833,52.998],[-2.925,53.19],[-3.101,53.267]]],[[[-4.208,53.313],[-4.291,53.414],[-4.572,53.401],[-4.501,53.188],[-4.222,53.186],[-4.208,53.313]]]]},"properties":{"shapeName":"Wales","shapeISO":"GB-WLS","shapeID":"14339913B89763821047858","shapeGroup":"GBR","shapeType":"ADM1"}}
]}