{"type":"FeatureCollection", "features": [
{"type":"Feature","geometry":{"type":"MultiPolygon","coordinates":[[[[135.238,34.453],[135.2,34.428],[135.228,34.413],[135.265,34.437],[135.238,34.453]]],[[[135.407,34.697],[135.409,34.676],[135.448,34.635],[135.446,34.611],[135.402,34.6],[135.41,34.555],[135.375,34.511],[135.361,34.462],[135.225,34.349],[135.103,34.32],[135.093,34.312],[135.107,34.278],[135.184,34.279],[135.249,34.314],[135.304,34.314],[135.339,34.329],[135.387,34.329],[135.485,34.363],[135.508,34.336],[135.563,34.369],[135.651,34.383],[135.68,34.409],[135.685,34.485],[135.657,34.562],[135.682,34.585],[135.653,34.603],[135.679,34.678],[135.673,34.702],[135.704,34.724],[135.707,34.772],[135.729,34.778],[135.746,34.804],[135.691,34.857],[135.676,34.899],[135.649,34.925],[135.611,34.94],[135.613,34.971],[135.571,34.97],[135.553,34.916],[135.536,34.92],[135.488,34.967],[135.482,34.995],[135.382,35.01],[135.371,35.045],[135.355,35.025],[135.345,34.967],[135.388,34.944],[135.442,34.939],[135.425,34.914],[135.441,34.89],[135.416,34.818],[135.441,34.791],[135.458,34.736],[135.407,34.697]]]]},"properties":{"shapeName":"Osaka Prefecture","shapeISO":"JP-27","shapeID":"47310658B55038426470858","shapeGroup":"JPN","shapeType":"ADM1"}},
{"type":"Feature","geometry":{"type":"Polygon","coordinates":[[[131.187,33.618],[131.173,33.591],[131.191,33.558],[131.163,33.508],[131.118,33.502],[130.977,33.507],[130.942,33.486],[130.926,33.458],[130.895,33.446],[130.886,33.38],[130.863,33.377],[130.849,33.338],[130.866,33.292],[130.855,33.263],[130.825,33.253],[130.836,33.211],[130.887,33.186],[130.866,33.127],[130.84,33.104],[130.89,33.083],[130.899,33.064],[130.959,33.044],[130.991,33.024],[131.012,33.043],[131.024,33.088],[130.978,33.141],[130.994,33.184],[131.039,33.194],[131.117,33.179],[131.161,33.141],[131.175,33.083],[131.216,33.054],[131.224,33.017],[131.264,32.977],[131.246,32.959],[131.253,32.898],[131.273,32.871],[131.33,32.833],[131.364,32.803],[131.421,32.812],[131.465,32.831],[131.517,32.801],[131.511,32.77],[131.568,32.754],[131.597,32.775],[131.669,32.767],[131.711,32.772],[131.736,32.831],[131.767,32.839],[131.807,32.822],[131.859,32.821],[131.844,32.777],[131.847,32.736],[131.886,32.746],[131.877,32.78],[131.948,32.795],[132.008,32.827],[131.96,32.834],[131.985,32.863],[131.985,32.912],[131.96,32.946],[131.889,32.991],[131.918,33.025],[131.933,33.075],[131.867,33.076],[131.883,33.122],[131.843,33.114],[131.81,33.139],[131.833,33.181],[131.865,33.198],[131.892,33.269],[131.806,33.242],[131.751,33.248],[131.681,33.279],[131.584,33.247],[131.513,33.267],[131.495,33.34],[131.502,33.362],[131.539,33.366],[131.587,33.346],[131.598,33.37],[131.644,33.375],[131.635,33.416],[131.659,33.422],[131.703,33.407],[131.71,33.435],[131.74,33.466],[131.733,33.517],[131.74,33.561],[131.662,33.67],[131.586,33.693],[131.5,33.671],[131.474,33.621],[131.424,33.592],[131.424,33.573],[131.323,33.583],[131.29,33.579],[131.256,33.599],[131.187,33.618]]]},"properties":{"shapeName":"Oita","shapeISO":"JP-44","shapeID":"47310658B53666900505284","shapeGroup":"JPN","shapeType":"ADM1"}},
{"type":"Feature","geometry":{"type":"MultiPolygon","coordinates":[[[[134.661,34.277],[134.695,34.248],[134.7,34.222],[134.729,34.189],[134.8,34.199],[134.846,34.231],[134.953,34.267],[134.943,34.298],[134.895,34.352],[134.895,34.417],[134.994,34.524],[134.995,34.545],[135.026,34.576],[135.004,34.609],[134.976,34.598],[134.935,34.549],[134.888,34.53],[134.839,34.469],[134.818,34.469],[134.755,34.385],[134.729,34.333],[134.687,34.327],[134.661,34.277]]],[[[135.371,35.045],[135.4,35.076],[135.391,35.126],[135.304,35.143],[135.274,35.177],[135.206,35.161],[135.163,35.22],[135.158,35.261],[135.109,35.266],[135.068,35.237],[135.056,35.259],[135.008,35.286],[134.925,35.312],[134.923,35.391],[134.946,35.413],[134.991,35.386],[135.049,35.408],[135.03,35.54],[134.963,35.515],[134.927,35.513],[134.919,35.538],[134.854,35.589],[134.874,35.621],[134.868,35.658],[134.784,35.667],[134.708,35.654],[134.656,35.665],[134.618,35.639],[134.599,35.659],[134.563,35.651],[134.54,35.67],[134.405,35.616],[134.37,35.615],[134.405,35.59],[134.426,35.542],[134.44,35.443],[134.48,35.427],[134.472,35.381],[134.514,35.353],[134.503,35.319],[134.515,35.277],[134.435,35.229],[134.403,35.241],[134.383,35.194],[134.412,35.186],[134.394,35.153],[134.362,35.14],[134.35,35.091],[134.319,35.083],[134.305,35.04],[134.264,35.017],[134.282,34.997],[134.277,34.963],[134.254,34.946],[134.295,34.904],[134.263,34.884],[134.253,34.852],[134.317,34.802],[134.322,34.722],[134.369,34.745],[134.411,34.727],[134.456,34.784],[134.482,34.767],[134.523,34.779],[134.57,34.758],[134.589,34.77],[134.661,34.784],[134.693,34.77],[134.745,34.769],[134.827,34.706],[134.844,34.721],[134.909,34.677],[134.973,34.644],[135.019,34.643],[135.052,34.624],[135.181,34.655],[135.194,34.683],[135.238,34.693],[135.293,34.719],[135.336,34.726],[135.371,34.681],[135.407,34.697],[135.458,34.736],[135.441,34.791],[135.416,34.818],[135.441,34.89],[135.425,34.914],[135.442,34.939],[135.388,34.944],[135.345,34.967],[135.355,35.025],[135.371,35.045]]]]},"properties":{"shapeName":"Hyogo Prefecture","shapeISO":"JP-28","shapeID":"47310658B99690886618857","shapeGroup":"JPN","shapeType":"ADM1"}},
{"type":"Feature","geometry":{"type":"Polygon","coordinates":[[[135.487,35.558],[135.45,35.521],[135.476,35.505],[135.458,35.468],[135.526,35.42],[135.537,35.377],[135.607,35.372],[135.701,35.344],[135.769,35.356],[135.808,35.385],[135.814,35.413],[135.891,35.403],[135.914,35.432],[135.924,35.49],[135.963,35.501],[136.004,35.491],[136.049,35.535],[136.106,35.529],[136.118,35.577],[136.162,35.571],[136.177,35.595],[136.148,35.662],[136.151,35.698],[136.269,35.669],[136.281,35.659],[136.327,35.731],[136.328,35.775],[136.377,35.795],[136.431,35.775],[136.497,35.766],[136.536,35.781],[136.571,35.777],[136.599,35.799],[136.666,35.785],[136.723,35.808],[136.789,35.799],[136.802,35.844],[136.832,35.859],[136.789,35.949],[136.753,35.956],[136.752,35.989],[136.727,35.996],[136.735,36.048],[136.754,36.086],[136.674,36.067],[136.56,36.153],[136.497,36.15],[136.441,36.137],[136.409,36.172],[136.358,36.165],[136.336,36.185],[136.301,36.258],[136.269,36.266],[136.244,36.295],[136.17,36.252],[136.141,36.254],[136.132,36.214],[136.071,36.135],[136.037,36.105],[136.011,36.039],[135.964,35.997],[135.959,35.976],[135.997,35.935],[135.997,35.887],[136.071,35.824],[136.1,35.778],[136.099,35.726],[136.078,35.703],[136.072,35.661],[136.046,35.658],[136.026,35.685],[136.044,35.705],[136.022,35.745],[135.968,35.736],[135.978,35.628],[135.94,35.616],[135.908,35.623],[135.856,35.6],[135.834,35.536],[135.796,35.526],[135.75,35.567],[135.715,35.57],[135.689,35.546],[135.751,35.531],[135.737,35.494],[135.711,35.484],[135.666,35.49],[135.626,35.482],[135.643,35.525],[135.603,35.515],[135.575,35.493],[135.515,35.496],[135.487,35.558]]]},"properties":{"shapeName":"Fukui Prefecture","shapeISO":"JP-18","shapeID":"47310658B56113460554138","shapeGroup":"JPN","shapeType":"ADM1"}},
{"type":"Feature","geometry":{"type":"Polygon","coordinates":[[[135.769,35.356],[135.791,35.324],[135.848,35.267],[135.831,35.223],[135.857,35.154],[135.833,35.053],[135.837,35.001],[135.874,34.955],[135.867,34.892],[135.898,34.871],[135.94,34.889],[135.961,34.855],[136.006,34.826],[136.022,34.792],[136.091,34.812],[136.088,34.829],[136.123,34.866],[136.166,34.888],[136.251,34.858],[136.366,34.905],[136.373,34.942],[136.395,34.952],[136.421,35],[136.418,35.049],[136.439,35.066],[136.436,35.131],[136.452,35.166],[136.413,35.192],[136.415,35.218],[136.389,35.25],[136.391,35.29],[136.422,35.348],[136.412,35.37],[136.444,35.389],[136.412,35.419],[136.426,35.448],[136.387,35.489],[136.406,35.513],[136.337,35.55],[136.316,35.623],[136.289,35.621],[136.281,35.659],[136.269,35.669],[136.151,35.698],[136.148,35.662],[136.177,35.595],[136.162,35.571],[136.118,35.577],[136.106,35.529],[136.049,35.535],[136.004,35.491],[135.963,35.501],[135.924,35.49],[135.914,35.432],[135.891,35.403],[135.814,35.413],[135.808,35.385],[135.769,35.356]]]},"properties":{"shapeName":"Shiga","shapeISO":"JP-25","shapeID":"47310658B66619598690773","shapeGroup":"JPN","shapeType":"ADM1"}},
{"type":"Feature","geometry":{"type":"Polygon","coordinates":[[[135.651,34.383],[135.664,34.355],[135.673,34.282],[135.719,34.26],[135.727,34.221],[135.648,34.219],[135.645,34.188],[135.622,34.158],[135.59,34.149],[135.578,34.116],[135.547,34.1],[135.54,34.075],[135.58,34.058],[135.622,34.01],[135.64,33.974],[135.617,33.937],[135.629,33.873],[135.686,33.904],[135.756,33.885],[135.816,33.906],[135.851,33.894],[135.858,33.873],[135.875,33.862],[135.881,33.909],[135.909,33.918],[135.892,33.946],[135.927,33.981],[135.954,33.98],[136.004,34.01],[136.018,34.036],[136.067,34.034],[136.092,34.048],[136.115,34.16],[136.098,34.202],[136.132,34.252],[136.095,34.301],[136.102,34.336],[136.069,34.394],[136.089,34.429],[136.13,34.446],[136.206,34.449],[136.22,34.516],[136.182,34.517],[136.151,34.559],[136.124,34.548],[136.052,34.579],[136.069,34.622],[136.065,34.652],[136.086,34.675],[136.055,34.739],[136.019,34.709],[135.981,34.737],[135.916,34.754],[135.892,34.718],[135.851,34.706],[135.757,34.728],[135.729,34.778],[135.707,34.772],[135.704,34.724],[135.673,34.702],[135.679,34.678],[135.653,34.603],[135.682,34.585],[135.657,34.562],[135.685,34.485],[135.68,34.409],[135.651,34.383]]]},"properties":{"shapeName":"Nara Prefecture","shapeISO":"JP-29","shapeID":"47310658B6129583352403","shapeGroup":"JPN","shapeType":"ADM1"}},
{"type":"Feature","geometry":{"type":"Polygon","coordinates":[[[136.281,35.659],[136.289,35.621],[136.316,35.623],[136.337,35.55],[136.406,35.513],[136.387,35.489],[136.426,35.448],[136.412,35.419],[136.444,35.389],[136.412,35.37],[136.422,35.348],[136.391,35.29],[136.389,35.25],[136.415,35.218],[136.462,35.236],[136.511,35.239],[136.534,35.257],[136.561,35.209],[136.602,35.178],[136.616,35.15],[136.673,35.135],[136.678,35.242],[136.726,35.296],[136.773,35.369],[136.834,35.356],[136.865,35.373],[136.922,35.379],[136.961,35.399],[137.028,35.376],[137.102,35.302],[137.165,35.283],[137.187,35.253],[137.224,35.256],[137.263,35.285],[137.31,35.288],[137.385,35.259],[137.436,35.225],[137.484,35.257],[137.562,35.289],[137.557,35.31],[137.601,35.331],[137.591,35.394],[137.635,35.401],[137.593,35.447],[137.63,35.477],[137.629,35.507],[137.581,35.539],[137.565,35.566],[137.514,35.608],[137.545,35.651],[137.497,35.688],[137.46,35.761],[137.4,35.775],[137.394,35.797],[137.336,35.799],[137.381,35.892],[137.435,35.905],[137.477,35.894],[137.504,35.94],[137.543,35.983],[137.59,36.007],[137.61,36.078],[137.551,36.11],[137.554,36.137],[137.591,36.164],[137.579,36.198],[137.596,36.243],[137.648,36.289],[137.652,36.322],[137.587,36.39],[137.541,36.391],[137.511,36.424],[137.461,36.412],[137.41,36.425],[137.395,36.456],[137.319,36.424],[137.317,36.461],[137.278,36.465],[137.209,36.432],[137.164,36.454],[137.112,36.415],[137.095,36.384],[137.066,36.375],[137.052,36.328],[137.003,36.287],[136.955,36.339],[136.907,36.361],[136.842,36.333],[136.826,36.303],[136.792,36.299],[136.815,36.266],[136.851,36.252],[136.798,36.173],[136.754,36.086],[136.735,36.048],[136.727,35.996],[136.752,35.989],[136.753,35.956],[136.789,35.949],[136.832,35.859],[136.802,35.844],[136.789,35.799],[136.723,35.808],[136.666,35.785],[136.599,35.799],[136.571,35.777],[136.536,35.781],[136.497,35.766],[136.431,35.775],[136.377,35.795],[136.328,35.775],[136.327,35.731],[136.281,35.659]]]},"properties":{"shapeName":"Gifu Prefecture","shapeISO":"JP-21","shapeID":"47310658B28580642450327","shapeGroup":"JPN","shapeType":"ADM1"}},
{"type":"Feature","geometry":{"type":"MultiPolygon","coordinates":[[[[136.765,34.277],[136.765,34.26],[136.819,34.251],[136.823,34.273],[136.765,34.277]]],[[[136.022,34.792],[136.031,34.756],[136.055,34.739],[136.086,34.675],[136.065,34.652],[136.069,34.622],[136.052,34.579],[136.124,34.548],[136.151,34.559],[136.182,34.517],[136.22,34.516],[136.206,34.449],[136.13,34.446],[136.089,34.429],[136.069,34.394],[136.102,34.336],[136.095,34.301],[136.132,34.252],[136.098,34.202],[136.115,34.16],[136.092,34.048],[136.067,34.034],[136.018,34.036],[136.004,34.01],[136.012,33.967],[135.965,33.928],[135.929,33.941],[135.909,33.918],[135.881,33.909],[135.901,33.885],[135.875,33.862],[135.858,33.873],[135.856,33.819],[135.892,33.8],[135.906,33.767],[135.963,33.725],[136.012,33.724],[136.043,33.8],[136.078,33.86],[136.199,33.932],[136.232,33.946],[136.217,33.974],[136.272,33.972],[136.245,34.038],[136.237,34.089],[136.294,34.095],[136.277,34.137],[136.283,34.163],[136.338,34.204],[136.374,34.197],[136.43,34.22],[136.455,34.243],[136.493,34.225],[136.523,34.267],[136.577,34.285],[136.586,34.257],[136.637,34.276],[136.67,34.308],[136.722,34.304],[136.792,34.288],[136.823,34.316],[136.861,34.262],[136.902,34.278],[136.885,34.298],[136.881,34.345],[136.862,34.367],[136.899,34.387],[136.924,34.416],[136.925,34.444],[136.879,34.451],[136.866,34.481],[136.818,34.49],[136.717,34.545],[136.668,34.558],[136.647,34.589],[136.57,34.603],[136.544,34.622],[136.554,34.667],[136.523,34.687],[136.531,34.745],[136.548,34.78],[136.616,34.853],[136.647,34.904],[136.645,34.956],[136.7,35.007],[136.74,35.033],[136.771,35.021],[136.75,35.08],[136.673,35.135],[136.616,35.15],[136.602,35.178],[136.561,35.209],[136.534,35.257],[136.511,35.239],[136.462,35.236],[136.415,35.218],[136.413,35.192],[136.452,35.166],[136.436,35.131],[136.439,35.066],[136.418,35.049],[136.421,35],[136.395,34.952],[136.373,34.942],[136.366,34.905],[136.251,34.858],[136.166,34.888],[136.123,34.866],[136.088,34.829],[136.091,34.812],[136.022,34.792]]]]},"properties":{"shapeName":"Mie Prefecture","shapeISO":"JP-24","shapeID":"47310658B36253982271084","shapeGroup":"JPN","shapeType":"ADM1"}},
{"type":"Feature","geometry":{"type":"MultiPolygon","coordinates":[[[[135.875,33.862],[135.901,33.885],[135.881,33.909],[135.875,33.862]]],[[[135.093,34.312],[135.074,34.305],[135.062,34.263],[135.086,34.261],[135.145,34.227],[135.148,34.183],[135.178,34.179],[135.172,34.137],[135.126,34.137],[135.088,34.072],[135.135,34.065],[135.161,34.046],[135.148,34.005],[135.093,33.993],[135.079,33.956],[135.083,33.91],[135.155,33.874],[135.163,33.845],[135.197,33.814],[135.351,33.747],[135.394,33.715],[135.343,33.658],[135.383,33.65],[135.404,33.579],[135.467,33.546],[135.488,33.551],[135.519,33.522],[135.578,33.507],[135.632,33.507],[135.67,33.492],[135.77,33.479],[135.825,33.514],[135.893,33.539],[135.929,33.578],[135.948,33.634],[136.012,33.724],[135.963,33.725],[135.906,33.767],[135.892,33.8],[135.856,33.819],[135.858,33.873],[135.851,33.894],[135.816,33.906],[135.756,33.885],[135.686,33.904],[135.629,33.873],[135.617,33.937],[135.64,33.974],[135.622,34.01],[135.58,34.058],[135.54,34.075],[135.547,34.1],[135.578,34.116],[135.59,34.149],[135.622,34.158],[135.645,34.188],[135.648,34.219],[135.727,34.221],[135.719,34.26],[135.673,34.282],[135.664,34.355],[135.651,34.383],[135.563,34.369],[135.508,34.336],[135.485,34.363],[135.387,34.329],[135.339,34.329],[135.304,34.314],[135.249,34.314],[135.184,34.279],[135.107,34.278],[135.093,34.312]]],[[[135.909,33.918],[135.929,33.941],[135.965,33.928],[136.012,33.967],[136.004,34.01],[135.954,33.98],[135.927,33.981],[135.892,33.946],[135.909,33.918]]]]},"properties":{"shapeName":"Wakayama Prefecture","shapeISO":"JP-30","shapeID":"47310658B18585040133157","shapeGroup":"JPN","shapeType":"ADM1"}},
{"type":"Feature","geometry":{"type":"MultiPolygon","coordinates":[[[[141.328,24.812],[141.291,24.79],[141.295,24.753],[141.347,24.783],[141.328,24.812]]],[[[142.184,27.07],[142.219,27.036],[142.233,27.077],[142.213,27.103],[142.187,27.106],[142.184,27.07]]],[[[139.831,33.047],[139.859,33.079],[139.846,33.116],[139.817,33.12],[139.772,33.159],[139.739,33.146],[139.754,33.105],[139.784,33.07],[139.831,33.047]]],[[[139.596,33.855],[139.632,33.87],[139.619,33.892],[139.577,33.879],[139.596,33.855]]],[[[139.493,34.102],[139.473,34.077],[139.502,34.045],[139.532,34.047],[139.563,34.069],[139.56,34.111],[139.54,34.124],[139.494,34.12],[139.493,34.102]]],[[[139.131,34.185],[139.173,34.212],[139.138,34.242],[139.131,34.185]]],[[[139.394,34.687],[139.443,34.681],[139.449,34.741],[139.436,34.77],[139.373,34.798],[139.349,34.766],[139.362,34.702],[139.394,34.687]]],[[[139.893,35.783],[139.844,35.799],[139.781,35.807],[139.739,35.787],[139.692,35.801],[139.641,35.798],[139.623,35.767],[139.589,35.779],[139.547,35.753],[139.523,35.789],[139.445,35.767],[139.405,35.769],[139.36,35.792],[139.325,35.796],[139.301,35.835],[139.192,35.84],[139.135,35.865],[139.072,35.872],[139.024,35.897],[138.954,35.875],[138.944,35.855],[138.963,35.829],[138.993,35.755],[139.025,35.72],[139.131,35.672],[139.202,35.653],[139.252,35.602],[139.299,35.606],[139.363,35.599],[139.4,35.584],[139.458,35.528],[139.505,35.575],[139.471,35.601],[139.526,35.643],[139.619,35.614],[139.669,35.585],[139.702,35.537],[139.757,35.545],[139.796,35.523],[139.809,35.539],[139.76,35.615],[139.807,35.64],[139.872,35.637],[139.887,35.679],[139.919,35.699],[139.884,35.757],[139.893,35.783]]]]},"properties":{"shapeName":"Tokyo","shapeISO":"JP-13","shapeID":"47310658B199342310790","shapeGroup":"JPN","shapeType":"ADM1"}},
{"type":"Feature","geometry":{"type":"Polygon","coordinates":[[[131.187,33.618],[131.141,33.626],[131.101,33.618],[131.019,33.733],[131.018,33.768],[130.999,33.807],[130.967,33.809],[130.961,33.839],[130.993,33.851],[131.024,33.96],[130.963,33.962],[130.936,33.913],[130.895,33.892],[130.867,33.921],[130.825,33.921],[130.777,33.934],[130.688,33.934],[130.661,33.9],[130.632,33.884],[130.576,33.879],[130.529,33.888],[130.518,33.86],[130.482,33.849],[130.472,33.817],[130.445,33.795],[130.471,33.773],[130.453,33.73],[130.402,33.689],[130.396,33.61],[130.354,33.595],[130.313,33.598],[130.293,33.58],[130.248,33.599],[130.206,33.646],[130.157,33.628],[130.162,33.611],[130.125,33.573],[130.154,33.537],[130.127,33.51],[130.049,33.495],[130.04,33.47],[130.09,33.468],[130.151,33.478],[130.176,33.466],[130.204,33.482],[130.25,33.47],[130.275,33.48],[130.378,33.425],[130.442,33.416],[130.512,33.449],[130.536,33.44],[130.542,33.379],[130.536,33.343],[130.512,33.344],[130.484,33.305],[130.462,33.304],[130.442,33.264],[130.389,33.258],[130.378,33.221],[130.34,33.204],[130.356,33.14],[130.398,33.107],[130.425,33.053],[130.414,33.002],[130.513,33.008],[130.495,33.049],[130.566,33.087],[130.577,33.115],[130.656,33.109],[130.667,33.155],[130.735,33.153],[130.757,33.132],[130.84,33.104],[130.866,33.127],[130.887,33.186],[130.836,33.211],[130.825,33.253],[130.855,33.263],[130.866,33.292],[130.849,33.338],[130.863,33.377],[130.886,33.38],[130.895,33.446],[130.926,33.458],[130.942,33.486],[130.977,33.507],[131.118,33.502],[131.163,33.508],[131.191,33.558],[131.173,33.591],[131.187,33.618]]]},"properties":{"shapeName":"Fukuoka Prefecture","shapeISO":"JP-40","shapeID":"47310658B84955483384411","shapeGroup":"JPN","shapeType":"ADM1"}},
{"type":"Feature","geometry":{"type":"Polygon","coordinates":[[[139.893,35.783],[139.89,35.844],[139.9,35.864],[139.866,35.928],[139.848,35.94],[139.814,35.997],[139.815,36.038],[139.776,36.091],[139.728,36.09],[139.726,36.113],[139.695,36.158],[139.688,36.2],[139.664,36.208],[139.615,36.192],[139.588,36.21],[139.528,36.192],[139.455,36.191],[139.377,36.245],[139.328,36.237],[139.267,36.251],[139.235,36.248],[139.164,36.279],[139.13,36.283],[139.056,36.182],[139.06,36.152],[139.015,36.134],[138.931,36.088],[138.898,36.091],[138.846,36.067],[138.828,36.037],[138.769,36.039],[138.713,35.985],[138.739,35.939],[138.729,35.909],[138.779,35.9],[138.814,35.862],[138.845,35.867],[138.892,35.84],[138.944,35.855],[138.954,35.875],[139.024,35.897],[139.072,35.872],[139.135,35.865],[139.192,35.84],[139.301,35.835],[139.325,35.796],[139.36,35.792],[139.405,35.769],[139.445,35.767],[139.523,35.789],[139.547,35.753],[139.589,35.779],[139.623,35.767],[139.641,35.798],[139.692,35.801],[139.739,35.787],[139.781,35.807],[139.844,35.799],[139.893,35.783]]]},"properties":{"shapeName":"Saitama","shapeISO":"JP-11","shapeID":"47310658B92659408322453","shapeGroup":"JPN","shapeType":"ADM1"}},
{"type":"Feature","geometry":{"type":"Polygon","coordinates":[[[139.681,37.847],[139.698,37.848],[139.715,37.853],[139.716,37.847],[139.721,37.84],[139.741,37.818],[139.722,37.809],[139.658,37.755],[139.605,37.674],[139.549,37.649],[139.549,37.61],[139.565,37.597],[139.57,37.539],[139.543,37.512],[139.457,37.518],[139.414,37.51],[139.406,37.466],[139.363,37.47],[139.236,37.445],[139.208,37.429],[139.208,37.396],[139.231,37.388],[139.234,37.344],[139.212,37.286],[139.165,37.237],[139.194,37.205],[139.227,37.203],[139.253,37.161],[139.237,37.12],[139.257,37.056],[139.243,37.015],[139.256,36.989],[139.232,36.94],[139.373,36.918],[139.393,36.911],[139.457,36.954],[139.535,36.981],[139.665,37.04],[139.677,37.057],[139.752,37.07],[139.778,37.089],[139.82,37.087],[139.832,37.134],[139.895,37.153],[140.046,37.137],[140.137,37.106],[140.193,37.065],[140.199,37.028],[140.249,37.026],[140.24,37],[140.264,36.933],[140.285,36.936],[140.324,36.893],[140.365,36.884],[140.377,36.838],[140.438,36.822],[140.464,36.791],[140.517,36.827],[140.538,36.859],[140.593,36.88],[140.565,36.913],[140.586,36.945],[140.616,36.903],[140.68,36.893],[140.714,36.873],[140.793,36.859],[140.816,36.908],[140.841,36.909],[140.885,36.938],[140.934,36.95],[140.983,36.996],[140.973,37.024],[140.978,37.071],[140.999,37.109],[141.002,37.2],[141.037,37.363],[141.034,37.419],[141.041,37.482],[141.024,37.585],[141.024,37.642],[141.011,37.691],[141.011,37.74],[140.964,37.789],[140.958,37.847],[140.931,37.896],[140.891,37.902],[140.856,37.891],[140.852,37.795],[140.773,37.797],[140.738,37.787],[140.695,37.805],[140.679,37.836],[140.683,37.88],[140.575,37.914],[140.489,37.899],[140.462,37.953],[140.349,37.95],[140.28,37.977],[140.281,37.941],[140.262,37.834],[140.282,37.798],[140.235,37.746],[140.166,37.757],[140.128,37.734],[140.087,37.758],[140.037,37.768],[139.986,37.76],[139.93,37.822],[139.879,37.81],[139.858,37.827],[139.813,37.804],[139.783,37.832],[139.741,37.82],[139.73,37.831],[139.721,37.84],[139.716,37.847],[139.716,37.854],[139.706,37.856],[139.681,37.847]]]},"properties":{"shapeName":"Fukushima","shapeISO":"JP-07","shapeID":"47310658B52822170400832","shapeGroup":"JPN","shapeType":"ADM1"}},
{"type":"Feature","geometry":{"type":"Polygon","coordinates":[[[139.688,36.2],[139.728,36.206],[139.822,36.24],[139.848,36.311],[139.91,36.301],[139.914,36.337],[139.964,36.351],[140,36.377],[140.048,36.376],[140.066,36.404],[140.111,36.398],[140.132,36.415],[140.181,36.397],[140.203,36.421],[140.203,36.454],[140.248,36.534],[140.248,36.611],[140.22,36.687],[140.286,36.712],[140.262,36.748],[140.266,36.829],[140.248,36.921],[140.264,36.933],[140.24,37],[140.249,37.026],[140.199,37.028],[140.193,37.065],[140.137,37.106],[140.046,37.137],[139.895,37.153],[139.832,37.134],[139.82,37.087],[139.778,37.089],[139.752,37.07],[139.677,37.057],[139.665,37.04],[139.535,36.981],[139.457,36.954],[139.393,36.911],[139.356,36.859],[139.407,36.827],[139.378,36.804],[139.351,36.764],[139.372,36.746],[139.337,36.692],[139.33,36.628],[139.352,36.615],[139.428,36.601],[139.465,36.607],[139.484,36.582],[139.418,36.495],[139.436,36.466],[139.405,36.445],[139.361,36.384],[139.418,36.337],[139.427,36.304],[139.481,36.271],[139.526,36.285],[139.562,36.267],[139.632,36.271],[139.631,36.255],[139.664,36.208],[139.688,36.2]]]},"properties":{"shapeName":"Tochigi","shapeISO":"JP-09","shapeID":"47310658B20461581662238","shapeGroup":"JPN","shapeType":"ADM1"}},
{"type":"Feature","geometry":{"type":"Polygon","coordinates":[[[141.683,40.45],[141.637,40.481],[141.57,40.543],[141.527,40.529],[141.484,40.561],[141.45,40.634],[141.424,40.709],[141.398,40.849],[141.385,41.013],[141.399,41.098],[141.389,41.149],[141.408,41.249],[141.441,41.355],[141.46,41.381],[141.434,41.407],[141.388,41.376],[141.314,41.352],[141.272,41.354],[141.198,41.384],[141.121,41.448],[141.066,41.482],[141.002,41.486],[140.953,41.522],[140.908,41.542],[140.899,41.477],[140.835,41.416],[140.82,41.346],[140.78,41.253],[140.78,41.209],[140.764,41.195],[140.769,41.141],[140.811,41.128],[140.833,41.15],[140.917,41.176],[140.945,41.174],[140.98,41.199],[141.056,41.183],[141.152,41.241],[141.164,41.28],[141.198,41.272],[141.248,41.224],[141.279,41.158],[141.242,41.082],[141.226,40.984],[141.181,40.908],[141.148,40.879],[141.101,40.873],[141.065,40.913],[140.972,40.935],[140.982,40.96],[140.94,40.995],[140.882,41.009],[140.86,40.972],[140.869,40.91],[140.845,40.873],[140.796,40.836],[140.749,40.83],[140.701,40.852],[140.681,40.876],[140.662,40.942],[140.645,41.049],[140.632,41.098],[140.645,41.172],[140.604,41.214],[140.527,41.221],[140.496,41.188],[140.464,41.182],[140.375,41.247],[140.33,41.23],[140.328,41.16],[140.287,41.12],[140.32,41.091],[140.316,40.986],[140.301,40.915],[140.268,40.829],[140.238,40.788],[140.205,40.786],[140.121,40.742],[140.054,40.769],[139.994,40.735],[139.982,40.706],[139.925,40.642],[139.902,40.646],[139.86,40.608],[139.869,40.584],[139.918,40.586],[139.94,40.553],[139.95,40.496],[139.936,40.428],[140.022,40.43],[140.059,40.467],[140.094,40.459],[140.108,40.436],[140.185,40.443],[140.22,40.431],[140.299,40.446],[140.384,40.485],[140.481,40.442],[140.525,40.413],[140.599,40.433],[140.661,40.404],[140.692,40.427],[140.787,40.457],[140.811,40.487],[140.878,40.511],[140.871,40.436],[140.933,40.421],[140.972,40.431],[140.995,40.353],[140.96,40.326],[140.946,40.258],[140.955,40.248],[140.969,40.226],[141.006,40.218],[141.11,40.261],[141.1,40.281],[141.173,40.31],[141.197,40.308],[141.248,40.341],[141.292,40.352],[141.316,40.373],[141.351,40.331],[141.434,40.374],[141.48,40.376],[141.537,40.347],[141.581,40.374],[141.581,40.398],[141.683,40.45]]]},"properties":{"shapeName":"Aomori","shapeISO":"JP-02","shapeID":"47310658B70834199776359","shapeGroup":"JPN","shapeType":"ADM1"}},
{"type":"Feature","geometry":{"type":"Polygon","coordinates":[[[130.04,33.47],[130.025,33.447],[129.968,33.456],[129.944,33.493],[129.947,33.528],[129.897,33.549],[129.831,33.52],[129.84,33.479],[129.807,33.486],[129.783,33.451],[129.824,33.412],[129.867,33.405],[129.85,33.348],[129.822,33.31],[129.791,33.34],[129.759,33.291],[129.815,33.239],[129.817,33.185],[129.879,33.162],[129.942,33.158],[129.956,33.129],[129.925,33.106],[129.94,33.073],[129.983,33.057],[130.001,33.026],[130.103,32.975],[130.204,32.957],[130.194,32.995],[130.143,33.08],[130.149,33.112],[130.222,33.165],[130.234,33.194],[130.278,33.17],[130.288,33.147],[130.356,33.14],[130.34,33.204],[130.378,33.221],[130.389,33.258],[130.442,33.264],[130.462,33.304],[130.484,33.305],[130.512,33.344],[130.536,33.343],[130.542,33.379],[130.536,33.44],[130.512,33.449],[130.442,33.416],[130.378,33.425],[130.275,33.48],[130.25,33.47],[130.204,33.482],[130.176,33.466],[130.151,33.478],[130.09,33.468],[130.04,33.47]]]},"properties":{"shapeName":"Saga Prefecture","shapeISO":"JP-41","shapeID":"47310658B53717877461658","shapeGroup":"JPN","shapeType":"ADM1"}},
{"type":"Feature","geometry":{"type":"MultiPolygon","coordinates":[[[[128.967,32.871],[129.03,32.85],[129.024,32.913],[128.967,32.871]]],[[[128.65,32.695],[128.663,32.645],[128.656,32.613],[128.688,32.603],[128.735,32.607],[128.772,32.574],[128.79,32.609],[128.77,32.645],[128.818,32.637],[128.893,32.641],[128.885,32.667],[128.847,32.697],[128.847,32.742],[128.793,32.785],[128.741,32.75],[128.657,32.78],[128.65,32.695]]],[[[128.837,32.783],[128.879,32.764],[128.911,32.797],[128.896,32.825],[128.862,32.844],[128.837,32.826],[128.837,32.783]]],[[[129.727,33.85],[129.699,33.862],[129.671,33.838],[129.686,33.807],[129.657,33.799],[129.646,33.752],[129.715,33.708],[129.732,33.733],[129.786,33.744],[129.759,33.779],[129.768,33.838],[129.727,33.85]]],[[[129.318,34.277],[129.305,34.306],[129.25,34.305],[129.221,34.33],[129.196,34.312],[129.171,34.111],[129.23,34.095],[129.285,34.145],[129.297,34.173],[129.297,34.22],[129.326,34.226],[129.318,34.277]]],[[[129.375,34.311],[129.408,34.338],[129.367,34.399],[129.386,34.428],[129.374,34.449],[129.434,34.504],[129.472,34.561],[129.467,34.605],[129.491,34.642],[129.464,34.695],[129.419,34.689],[129.379,34.643],[129.32,34.647],[129.306,34.589],[129.287,34.569],[129.325,34.551],[129.274,34.469],[129.274,34.375],[129.3,34.35],[129.333,34.371],[129.375,34.311]]],[[[129.551,33.47],[129.579,33.489],[129.556,33.511],[129.497,33.472],[129.551,33.47]]],[[[129.081,33.047],[129.05,33.041],[129.041,33.003],[129.057,32.981],[128.998,32.949],[129.038,32.94],[129.043,32.893],[129.066,32.856],[129.094,32.871],[129.097,32.924],[129.143,32.94],[129.183,32.973],[129.174,32.997],[129.135,33],[129.109,32.981],[129.09,33.018],[129.116,33.085],[129.085,33.076],[129.081,33.047]]],[[[129.791,33.34],[129.745,33.367],[129.717,33.348],[129.643,33.367],[129.578,33.363],[129.576,33.308],[129.559,33.216],[129.601,33.212],[129.656,33.193],[129.709,33.119],[129.761,33.144],[129.783,33.144],[129.794,33.138],[129.798,33.131],[129.794,33.125],[129.797,33.114],[129.788,33.103],[129.802,33.068],[129.842,33.056],[129.875,33.065],[129.945,33.016],[129.951,32.987],[129.929,32.936],[129.963,32.876],[129.933,32.857],[129.897,32.88],[129.844,32.843],[129.799,32.866],[129.81,32.889],[129.823,32.982],[129.801,33.008],[129.731,33.008],[129.748,33.039],[129.73,33.075],[129.682,33.099],[129.654,33.002],[129.627,32.958],[129.663,32.916],[129.678,32.867],[129.7,32.834],[129.791,32.786],[129.807,32.754],[129.853,32.722],[129.818,32.706],[129.81,32.656],[129.789,32.612],[129.83,32.613],[129.841,32.638],[129.892,32.66],[129.916,32.699],[129.957,32.742],[129.958,32.765],[130.024,32.758],[130.084,32.795],[130.127,32.788],[130.179,32.795],[130.206,32.756],[130.207,32.727],[130.133,32.681],[130.13,32.641],[130.168,32.621],[130.181,32.593],[130.219,32.605],[130.276,32.654],[130.302,32.652],[130.349,32.675],[130.346,32.708],[130.377,32.74],[130.379,32.779],[130.341,32.855],[130.308,32.873],[130.243,32.875],[130.225,32.86],[130.163,32.844],[130.124,32.884],[130.179,32.914],[130.204,32.957],[130.103,32.975],[130.001,33.026],[129.983,33.057],[129.94,33.073],[129.925,33.106],[129.956,33.129],[129.942,33.158],[129.879,33.162],[129.817,33.185],[129.815,33.239],[129.759,33.291],[129.791,33.34]]],[[[129.757,33.057],[129.786,33.104],[129.795,33.113],[129.792,33.126],[129.794,33.137],[129.784,33.142],[129.766,33.143],[129.734,33.09],[129.757,33.057]]],[[[129.111,33.288],[129.07,33.271],[129.119,33.245],[129.152,33.273],[129.111,33.288]]],[[[129.813,33.398],[129.81,33.356],[129.854,33.372],[129.813,33.398]]],[[[129.413,33.399],[129.404,33.363],[129.434,33.356],[129.437,33.395],[129.413,33.399]]],[[[129.436,33.311],[129.409,33.277],[129.412,33.236],[129.38,33.224],[129.394,33.173],[129.434,33.191],[129.501,33.259],[129.49,33.278],[129.516,33.324],[129.567,33.359],[129.547,33.376],[129.508,33.38],[129.499,33.355],[129.437,33.345],[129.436,33.311]]]]},"properties":{"shapeName":"Nagasaki Prefecture","shapeISO":"JP-42","shapeID":"47310658B82893106270036","shapeGroup":"JPN","shapeType":"ADM1"}},
{"type":"Feature","geometry":{"type":"Polygon","coordinates":[[[131.33,32.833],[131.258,32.818],[131.232,32.744],[131.18,32.712],[131.116,32.642],[131.12,32.599],[131.091,32.579],[131.052,32.588],[131.018,32.547],[131.007,32.49],[131.016,32.448],[131.044,32.408],[131.068,32.407],[131.08,32.374],[131.112,32.33],[131.09,32.294],[131.042,32.258],[131.101,32.202],[131.097,32.152],[131.037,32.17],[131.002,32.169],[130.975,32.121],[130.933,32.116],[130.906,32.134],[130.857,32.1],[130.821,32.095],[130.721,32.101],[130.703,32.058],[130.737,32.048],[130.777,32.016],[130.784,31.979],[130.816,31.941],[130.842,31.943],[130.878,31.922],[130.897,31.888],[130.877,31.816],[130.931,31.786],[130.98,31.779],[131.015,31.749],[131.013,31.713],[131.031,31.663],[131.054,31.633],[131.079,31.66],[131.118,31.629],[131.169,31.637],[131.205,31.58],[131.201,31.518],[131.179,31.506],[131.16,31.462],[131.206,31.453],[131.254,31.381],[131.334,31.399],[131.373,31.436],[131.363,31.472],[131.39,31.485],[131.387,31.535],[131.401,31.582],[131.462,31.633],[131.452,31.682],[131.471,31.758],[131.488,31.785],[131.455,31.816],[131.457,31.883],[131.47,31.935],[131.576,32.25],[131.577,32.27],[131.617,32.338],[131.643,32.408],[131.676,32.416],[131.652,32.451],[131.662,32.482],[131.695,32.469],[131.724,32.489],[131.694,32.511],[131.682,32.542],[131.713,32.59],[131.742,32.592],[131.773,32.634],[131.762,32.658],[131.818,32.691],[131.858,32.731],[131.886,32.746],[131.847,32.736],[131.844,32.777],[131.859,32.821],[131.807,32.822],[131.767,32.839],[131.736,32.831],[131.711,32.772],[131.669,32.767],[131.597,32.775],[131.568,32.754],[131.511,32.77],[131.517,32.801],[131.465,32.831],[131.421,32.812],[131.364,32.803],[131.33,32.833]]]},"properties":{"shapeName":"Miyazaki Prefecture","shapeISO":"JP-45","shapeID":"47310658B9011809709100","shapeGroup":"JPN","shapeType":"ADM1"}},
{"type":"Feature","geometry":{"type":"MultiPolygon","coordinates":[[[[130.001,32.306],[129.967,32.244],[130.004,32.235],[129.991,32.197],[130.013,32.189],[130.081,32.218],[130.17,32.329],[130.209,32.336],[130.219,32.393],[130.198,32.458],[130.196,32.535],[130.177,32.551],[130.121,32.547],[130.046,32.513],[130.038,32.466],[130.008,32.43],[129.975,32.356],[130.001,32.306]]],[[[130.254,32.395],[130.307,32.396],[130.382,32.387],[130.419,32.429],[130.455,32.522],[130.402,32.515],[130.367,32.528],[130.316,32.518],[130.27,32.479],[130.205,32.451],[130.225,32.412],[130.254,32.395]]],[[[130.43,32.613],[130.394,32.589],[130.405,32.551],[130.439,32.548],[130.457,32.582],[130.43,32.613]]],[[[130.84,33.104],[130.757,33.132],[130.735,33.153],[130.667,33.155],[130.656,33.109],[130.577,33.115],[130.566,33.087],[130.495,33.049],[130.513,33.008],[130.414,33.002],[130.431,32.987],[130.443,32.928],[130.527,32.877],[130.523,32.853],[130.578,32.839],[130.601,32.811],[130.607,32.743],[130.601,32.713],[130.567,32.699],[130.538,32.665],[130.5,32.654],[130.451,32.624],[130.467,32.605],[130.557,32.625],[130.587,32.623],[130.652,32.643],[130.634,32.603],[130.591,32.577],[130.562,32.538],[130.544,32.538],[130.543,32.484],[130.565,32.476],[130.574,32.439],[130.489,32.366],[130.472,32.301],[130.433,32.264],[130.422,32.238],[130.394,32.227],[130.361,32.168],[130.402,32.12],[130.454,32.113],[130.506,32.141],[130.54,32.14],[130.583,32.155],[130.623,32.156],[130.699,32.107],[130.721,32.101],[130.821,32.095],[130.857,32.1],[130.906,32.134],[130.933,32.116],[130.975,32.121],[131.002,32.169],[131.037,32.17],[131.097,32.152],[131.101,32.202],[131.042,32.258],[131.09,32.294],[131.112,32.33],[131.08,32.374],[131.068,32.407],[131.044,32.408],[131.016,32.448],[131.007,32.49],[131.018,32.547],[131.052,32.588],[131.091,32.579],[131.12,32.599],[131.116,32.642],[131.18,32.712],[131.232,32.744],[131.258,32.818],[131.33,32.833],[131.273,32.871],[131.253,32.898],[131.246,32.959],[131.264,32.977],[131.224,33.017],[131.216,33.054],[131.175,33.083],[131.161,33.141],[131.117,33.179],[131.039,33.194],[130.994,33.184],[130.978,33.141],[131.024,33.088],[131.012,33.043],[130.991,33.024],[130.959,33.044],[130.899,33.064],[130.89,33.083],[130.84,33.104]]]]},"properties":{"shapeName":"Kumamoto","shapeISO":"JP-43","shapeID":"47310658B50146545060878","shapeGroup":"JPN","shapeType":"ADM1"}},
{"type":"Feature","geometry":{"type":"MultiPolygon","coordinates":[[[[128.427,27.068],[128.412,27.028],[128.458,27.025],[128.453,27.052],[128.427,27.068]]],[[[128.653,27.422],[128.635,27.409],[128.559,27.396],[128.531,27.404],[128.52,27.376],[128.531,27.349],[128.567,27.328],[128.637,27.366],[128.676,27.414],[128.653,27.422]]],[[[128.896,27.774],[128.9,27.736],[128.936,27.661],[128.987,27.67],[129.032,27.746],[129.038,27.769],[128.966,27.824],[128.971,27.893],[128.89,27.883],[128.882,27.846],[128.896,27.774]]],[[[129.215,28.125],[129.229,28.09],[129.262,28.081],[129.292,28.091],[129.341,28.077],[129.355,28.105],[129.292,28.108],[129.21,28.167],[129.215,28.125]]],[[[129.205,28.037],[129.269,28.016],[129.265,28.038],[129.205,28.037]]],[[[129.944,28.328],[129.915,28.296],[129.952,28.275],[129.973,28.284],[130.031,28.353],[130.009,28.376],[129.975,28.343],[129.944,28.328]]],[[[129.726,29.624],[129.743,29.666],[129.684,29.652],[129.698,29.603],[129.726,29.624]]],[[[129.85,29.883],[129.838,29.849],[129.86,29.822],[129.918,29.82],[129.885,29.873],[129.85,29.883]]],[[[129.214,28.301],[129.232,28.273],[129.144,28.258],[129.178,28.224],[129.214,28.227],[129.29,28.189],[129.291,28.154],[129.322,28.136],[129.369,28.141],[129.401,28.157],[129.408,28.182],[129.472,28.221],[129.442,28.231],[129.462,28.297],[129.486,28.289],[129.538,28.306],[129.584,28.365],[129.63,28.407],[129.71,28.422],[129.721,28.461],[129.676,28.527],[129.648,28.449],[129.62,28.44],[129.595,28.475],[129.518,28.441],[129.508,28.399],[129.456,28.411],[129.45,28.382],[129.399,28.381],[129.367,28.355],[129.339,28.368],[129.313,28.335],[129.265,28.328],[129.214,28.301]]],[[[130.455,30.234],[130.522,30.226],[130.582,30.239],[130.654,30.3],[130.672,30.376],[130.639,30.401],[130.598,30.41],[130.575,30.432],[130.514,30.456],[130.469,30.46],[130.464,30.437],[130.418,30.396],[130.377,30.376],[130.437,30.239],[130.455,30.234]]],[[[130.254,30.439],[130.235,30.47],[130.184,30.481],[130.21,30.426],[130.254,30.439]]],[[[130.21,32.256],[130.26,32.278],[130.249,32.304],[130.215,32.284],[130.21,32.256]]],[[[130.721,32.101],[130.699,32.107],[130.623,32.156],[130.583,32.155],[130.54,32.14],[130.506,32.141],[130.454,32.113],[130.402,32.12],[130.361,32.168],[130.351,32.134],[130.284,32.11],[130.252,32.128],[130.208,32.124],[130.175,32.104],[130.201,32.075],[130.202,32.037],[130.178,32.003],[130.201,31.987],[130.224,31.91],[130.166,31.795],[130.189,31.757],[130.212,31.756],[130.26,31.722],[130.317,31.657],[130.335,31.596],[130.32,31.505],[130.271,31.427],[130.225,31.402],[130.145,31.427],[130.139,31.407],[130.164,31.375],[130.21,31.348],[130.226,31.306],[130.217,31.261],[130.265,31.255],[130.287,31.27],[130.354,31.25],[130.46,31.251],[130.486,31.237],[130.53,31.163],[130.555,31.179],[130.59,31.175],[130.64,31.19],[130.66,31.271],[130.624,31.275],[130.565,31.323],[130.513,31.459],[130.514,31.491],[130.57,31.574],[130.563,31.597],[130.618,31.656],[130.614,31.696],[130.66,31.729],[130.714,31.728],[130.738,31.707],[130.795,31.702],[130.823,31.659],[130.755,31.559],[130.717,31.56],[130.709,31.612],[130.679,31.629],[130.625,31.62],[130.592,31.581],[130.636,31.55],[130.698,31.556],[130.699,31.462],[130.732,31.451],[130.756,31.425],[130.803,31.336],[130.79,31.306],[130.79,31.251],[130.754,31.2],[130.767,31.181],[130.744,31.132],[130.658,31.071],[130.678,31.062],[130.665,31.012],[130.683,31.007],[130.719,31.046],[130.778,31.066],[130.808,31.087],[130.874,31.095],[130.979,31.152],[131.017,31.228],[131.065,31.227],[131.111,31.262],[131.077,31.279],[131.099,31.332],[131.017,31.357],[131.019,31.391],[131.066,31.45],[131.112,31.474],[131.16,31.462],[131.179,31.506],[131.201,31.518],[131.205,31.58],[131.169,31.637],[131.118,31.629],[131.079,31.66],[131.054,31.633],[131.031,31.663],[131.013,31.713],[131.015,31.749],[130.98,31.779],[130.931,31.786],[130.877,31.816],[130.897,31.888],[130.878,31.922],[130.842,31.943],[130.816,31.941],[130.784,31.979],[130.777,32.016],[130.737,32.048],[130.703,32.058],[130.721,32.101]]],[[[129.666,31.641],[129.697,31.623],[129.727,31.649],[129.748,31.717],[129.709,31.723],[129.666,31.641]]],[[[129.874,31.817],[129.931,31.825],[129.93,31.859],[129.882,31.857],[129.836,31.882],[129.817,31.861],[129.861,31.837],[129.874,31.817]]],[[[130.122,32.212],[130.097,32.187],[130.116,32.157],[130.113,32.127],[130.163,32.091],[130.193,32.199],[130.17,32.224],[130.122,32.212]]],[[[130.957,30.373],[130.98,30.403],[130.979,30.438],[130.963,30.48],[130.999,30.548],[131.023,30.553],[131.034,30.589],[131.055,30.605],[131.05,30.647],[131.073,30.719],[131.083,30.783],[131.056,30.84],[131.003,30.785],[131.009,30.766],[130.979,30.726],[130.942,30.648],[130.953,30.593],[130.937,30.556],[130.875,30.468],[130.851,30.468],[130.872,30.345],[130.937,30.375],[130.957,30.373]]]]},"properties":{"shapeName":"Kagoshima Prefecture","shapeISO":"JP-46","shapeID":"47310658B56795339529760","shapeGroup":"JPN","shapeType":"ADM1"}},
{"type":"Feature","geometry":{"type":"Polygon","coordinates":[[[139.664,36.208],[139.631,36.255],[139.632,36.271],[139.562,36.267],[139.526,36.285],[139.481,36.271],[139.427,36.304],[139.418,36.337],[139.361,36.384],[139.405,36.445],[139.436,36.466],[139.418,36.495],[139.484,36.582],[139.465,36.607],[139.428,36.601],[139.352,36.615],[139.33,36.628],[139.337,36.692],[139.372,36.746],[139.351,36.764],[139.378,36.804],[139.407,36.827],[139.356,36.859],[139.393,36.911],[139.373,36.918],[139.232,36.94],[139.229,36.961],[139.183,36.962],[139.18,36.99],[139.097,37.059],[139.091,37.02],[139.031,36.984],[138.971,36.981],[138.964,36.951],[138.98,36.892],[138.932,36.893],[138.917,36.871],[138.929,36.833],[138.882,36.826],[138.829,36.795],[138.818,36.762],[138.767,36.747],[138.727,36.764],[138.696,36.739],[138.544,36.704],[138.52,36.689],[138.524,36.65],[138.458,36.634],[138.429,36.598],[138.429,36.556],[138.404,36.522],[138.401,36.434],[138.457,36.42],[138.489,36.401],[138.529,36.403],[138.592,36.424],[138.648,36.409],[138.657,36.369],[138.645,36.293],[138.613,36.286],[138.602,36.249],[138.635,36.206],[138.631,36.173],[138.593,36.153],[138.634,36.134],[138.631,36.091],[138.644,36.05],[138.632,36.027],[138.713,35.985],[138.769,36.039],[138.828,36.037],[138.846,36.067],[138.898,36.091],[138.931,36.088],[139.015,36.134],[139.06,36.152],[139.056,36.182],[139.13,36.283],[139.164,36.279],[139.235,36.248],[139.267,36.251],[139.328,36.237],[139.377,36.245],[139.455,36.191],[139.528,36.192],[139.588,36.21],[139.615,36.192],[139.664,36.208]]]},"properties":{"shapeName":"Gunma","shapeISO":"JP-10","shapeID":"47310658B57998234967550","shapeGroup":"JPN","shapeType":"ADM1"}},
{"type":"Feature","geometry":{"type":"Polygon","coordinates":[[[135.729,34.778],[135.757,34.728],[135.851,34.706],[135.892,34.718],[135.916,34.754],[135.981,34.737],[136.019,34.709],[136.055,34.739],[136.031,34.756],[136.022,34.792],[136.006,34.826],[135.961,34.855],[135.94,34.889],[135.898,34.871],[135.867,34.892],[135.874,34.955],[135.837,35.001],[135.833,35.053],[135.857,35.154],[135.831,35.223],[135.848,35.267],[135.791,35.324],[135.769,35.356],[135.701,35.344],[135.607,35.372],[135.537,35.377],[135.526,35.42],[135.458,35.468],[135.476,35.505],[135.45,35.521],[135.487,35.558],[135.452,35.568],[135.352,35.544],[135.332,35.516],[135.289,35.516],[135.238,35.555],[135.208,35.563],[135.214,35.597],[135.245,35.62],[135.267,35.667],[135.307,35.699],[135.289,35.724],[135.231,35.773],[135.146,35.75],[135.086,35.74],[135.085,35.725],[135.024,35.69],[134.974,35.683],[134.962,35.661],[134.904,35.63],[134.868,35.658],[134.874,35.621],[134.854,35.589],[134.919,35.538],[134.927,35.513],[134.963,35.515],[135.03,35.54],[135.049,35.408],[134.991,35.386],[134.946,35.413],[134.923,35.391],[134.925,35.312],[135.008,35.286],[135.056,35.259],[135.068,35.237],[135.109,35.266],[135.158,35.261],[135.163,35.22],[135.206,35.161],[135.274,35.177],[135.304,35.143],[135.391,35.126],[135.4,35.076],[135.371,35.045],[135.382,35.01],[135.482,34.995],[135.488,34.967],[135.536,34.92],[135.553,34.916],[135.571,34.97],[135.613,34.971],[135.611,34.94],[135.649,34.925],[135.676,34.899],[135.691,34.857],[135.746,34.804],[135.729,34.778]]]},"properties":{"shapeName":"Kyoto Prefecture","shapeISO":"JP-26","shapeID":"47310658B94014236912993","shapeGroup":"JPN","shapeType":"ADM1"}},
{"type":"Feature","geometry":{"type":"Polygon","coordinates":[[[139.872,35.637],[139.898,35.617],[139.939,35.641],[139.918,35.655],[139.964,35.682],[139.986,35.681],[140.116,35.569],[140.062,35.544],[140.011,35.484],[139.966,35.469],[139.949,35.442],[139.897,35.424],[139.913,35.382],[139.882,35.361],[139.846,35.375],[139.823,35.344],[139.814,35.306],[139.847,35.291],[139.867,35.22],[139.83,35.203],[139.817,35.155],[139.837,35.137],[139.821,35.072],[139.829,35.041],[139.857,35.012],[139.828,34.99],[139.758,34.959],[139.809,34.944],[139.845,34.902],[139.92,34.907],[139.965,34.943],[139.961,34.968],[139.983,35.013],[140.039,35.052],[140.073,35.059],[140.136,35.122],[140.232,35.115],[140.247,35.134],[140.325,35.141],[140.349,35.18],[140.377,35.181],[140.406,35.24],[140.399,35.267],[140.415,35.306],[140.397,35.331],[140.393,35.4],[140.431,35.499],[140.497,35.577],[140.561,35.629],[140.643,35.683],[140.693,35.701],[140.731,35.689],[140.826,35.714],[140.871,35.718],[140.852,35.745],[140.818,35.74],[140.744,35.783],[140.707,35.836],[140.631,35.859],[140.612,35.891],[140.511,35.959],[140.484,35.91],[140.458,35.927],[140.418,35.906],[140.362,35.899],[140.319,35.865],[140.278,35.874],[140.241,35.855],[140.214,35.862],[140.157,35.843],[140.128,35.87],[140.074,35.877],[140.013,35.911],[139.938,35.941],[139.933,35.969],[139.884,35.989],[139.876,36.011],[139.776,36.091],[139.815,36.038],[139.814,35.997],[139.848,35.94],[139.866,35.928],[139.9,35.864],[139.89,35.844],[139.893,35.783],[139.884,35.757],[139.919,35.699],[139.887,35.679],[139.872,35.637]]]},"properties":{"shapeName":"Chiba","shapeISO":"JP-12","shapeID":"47310658B1351727290704","shapeGroup":"JPN","shapeType":"ADM1"}},
{"type":"Feature","geometry":{"type":"Polygon","coordinates":[[[139.776,36.091],[139.876,36.011],[139.884,35.989],[139.933,35.969],[139.938,35.941],[140.013,35.911],[140.074,35.877],[140.128,35.87],[140.157,35.843],[140.214,35.862],[140.241,35.855],[140.278,35.874],[140.319,35.865],[140.362,35.899],[140.418,35.906],[140.458,35.927],[140.484,35.91],[140.511,35.959],[140.612,35.891],[140.631,35.859],[140.707,35.836],[140.744,35.783],[140.818,35.74],[140.852,35.745],[140.824,35.762],[140.744,35.865],[140.683,35.968],[140.671,35.973],[140.594,36.122],[140.562,36.228],[140.563,36.298],[140.594,36.321],[140.62,36.36],[140.613,36.393],[140.611,36.476],[140.629,36.501],[140.653,36.573],[140.694,36.644],[140.717,36.662],[140.73,36.743],[140.768,36.817],[140.806,36.83],[140.793,36.859],[140.714,36.873],[140.68,36.893],[140.616,36.903],[140.586,36.945],[140.565,36.913],[140.593,36.88],[140.538,36.859],[140.517,36.827],[140.464,36.791],[140.438,36.822],[140.377,36.838],[140.365,36.884],[140.324,36.893],[140.285,36.936],[140.264,36.933],[140.248,36.921],[140.266,36.829],[140.262,36.748],[140.286,36.712],[140.22,36.687],[140.248,36.611],[140.248,36.534],[140.203,36.454],[140.203,36.421],[140.181,36.397],[140.132,36.415],[140.111,36.398],[140.066,36.404],[140.048,36.376],[140,36.377],[139.964,36.351],[139.914,36.337],[139.91,36.301],[139.848,36.311],[139.822,36.24],[139.728,36.206],[139.688,36.2],[139.695,36.158],[139.726,36.113],[139.728,36.09],[139.776,36.091]]]},"properties":{"shapeName":"Ibaraki","shapeISO":"JP-08","shapeID":"47310658B31759366295450","shapeGroup":"JPN","shapeType":"ADM1"}},
{"type":"Feature","geometry":{"type":"Polygon","coordinates":[[[139.131,35.672],[139.117,35.655],[139.134,35.617],[139.13,35.566],[139.086,35.512],[139.028,35.481],[138.959,35.462],[138.927,35.438],[138.916,35.401],[139.001,35.4],[139.011,35.338],[139.005,35.29],[138.975,35.264],[138.993,35.199],[139.029,35.17],[139.029,35.15],[139.112,35.141],[139.139,35.149],[139.149,35.239],[139.206,35.276],[139.332,35.313],[139.435,35.319],[139.526,35.302],[139.613,35.223],[139.602,35.196],[139.62,35.174],[139.612,35.142],[139.679,35.143],[139.657,35.185],[139.691,35.209],[139.72,35.212],[139.739,35.262],[139.691,35.266],[139.643,35.298],[139.661,35.328],[139.637,35.39],[139.678,35.416],[139.638,35.458],[139.641,35.48],[139.713,35.464],[139.791,35.508],[139.796,35.523],[139.757,35.545],[139.702,35.537],[139.669,35.585],[139.619,35.614],[139.526,35.643],[139.471,35.601],[139.505,35.575],[139.458,35.528],[139.4,35.584],[139.363,35.599],[139.299,35.606],[139.252,35.602],[139.202,35.653],[139.131,35.672]]]},"properties":{"shapeName":"Kanagawa","shapeISO":"JP-14","shapeID":"47310658B16920518838967","shapeGroup":"JPN","shapeType":"ADM1"}},
{"type":"Feature","geometry":{"type":"MultiPolygon","coordinates":[[[[133.194,34.397],[133.216,34.365],[133.239,34.398],[133.194,34.397]]],[[[132.305,34.295],[132.262,34.252],[132.303,34.244],[132.348,34.282],[132.305,34.295]]],[[[133.07,34.277],[133.083,34.256],[133.144,34.285],[133.14,34.315],[133.084,34.308],[133.07,34.277]]],[[[132.891,34.262],[132.843,34.241],[132.875,34.205],[132.905,34.214],[132.938,34.273],[132.891,34.262]]],[[[132.854,34.189],[132.803,34.172],[132.82,34.151],[132.854,34.189]]],[[[132.539,34.108],[132.552,34.187],[132.503,34.185],[132.508,34.141],[132.447,34.108],[132.462,34.082],[132.539,34.108]]],[[[132.445,34.152],[132.49,34.204],[132.499,34.267],[132.49,34.283],[132.434,34.286],[132.48,34.232],[132.439,34.233],[132.425,34.255],[132.387,34.26],[132.384,34.226],[132.444,34.17],[132.445,34.152]]],[[[133.187,34.277],[133.211,34.314],[133.174,34.358],[133.134,34.336],[133.155,34.299],[133.187,34.277]]],[[[133.136,35.074],[133.12,35.085],[133.061,35.081],[133.033,35.068],[133,35.097],[132.95,35.075],[132.861,35.096],[132.763,34.993],[132.75,34.96],[132.685,34.951],[132.636,34.899],[132.701,34.882],[132.659,34.832],[132.615,34.842],[132.538,34.795],[132.458,34.803],[132.437,34.821],[132.399,34.784],[132.374,34.801],[132.298,34.777],[132.278,34.797],[132.243,34.783],[132.222,34.75],[132.143,34.716],[132.162,34.683],[132.127,34.639],[132.13,34.595],[132.114,34.563],[132.084,34.538],[132.052,34.53],[132.047,34.5],[132.069,34.468],[132.081,34.443],[132.069,34.416],[132.085,34.358],[132.14,34.285],[132.157,34.229],[132.2,34.225],[132.207,34.203],[132.246,34.211],[132.227,34.235],[132.238,34.261],[132.28,34.284],[132.333,34.344],[132.398,34.362],[132.496,34.348],[132.494,34.316],[132.519,34.283],[132.544,34.194],[132.603,34.22],[132.641,34.202],[132.707,34.238],[132.753,34.239],[132.773,34.256],[132.802,34.31],[132.828,34.316],[132.847,34.292],[132.894,34.327],[132.942,34.336],[133.016,34.329],[133.08,34.346],[133.093,34.389],[133.127,34.383],[133.27,34.433],[133.273,34.408],[133.306,34.388],[133.367,34.369],[133.386,34.422],[133.431,34.424],[133.447,34.48],[133.454,34.532],[133.422,34.587],[133.385,34.617],[133.403,34.672],[133.374,34.695],[133.365,34.767],[133.378,34.808],[133.342,34.83],[133.294,34.903],[133.309,34.937],[133.297,34.956],[133.322,35.006],[133.269,35.058],[133.25,35.079],[133.142,35.065],[133.136,35.074]]]]},"properties":{"shapeName":"Hiroshima","shapeISO":"JP-34","shapeID":"47310658B84769036468911","shapeGroup":"JPN","shapeType":"ADM1"}},
{"type":"Feature","geometry":{"type":"Polygon","coordinates":[[[134.37,35.615],[134.364,35.602],[134.294,35.589],[134.274,35.562],[134.153,35.531],[134.034,35.519],[134,35.525],[133.925,35.51],[133.78,35.501],[133.669,35.507],[133.59,35.532],[133.498,35.516],[133.447,35.495],[133.425,35.46],[133.402,35.453],[133.323,35.466],[133.259,35.505],[133.245,35.549],[133.199,35.526],[133.223,35.48],[133.309,35.431],[133.325,35.374],[133.296,35.349],[133.293,35.321],[133.311,35.268],[133.253,35.26],[133.153,35.219],[133.182,35.201],[133.195,35.17],[133.157,35.149],[133.14,35.118],[133.136,35.074],[133.142,35.065],[133.25,35.079],[133.269,35.058],[133.326,35.093],[133.412,35.121],[133.396,35.181],[133.448,35.171],[133.501,35.193],[133.529,35.187],[133.517,35.241],[133.568,35.257],[133.577,35.314],[133.597,35.345],[133.749,35.317],[133.794,35.293],[133.818,35.253],[133.866,35.272],[133.862,35.293],[133.925,35.307],[133.93,35.331],[133.97,35.348],[134.015,35.35],[134.008,35.308],[134.07,35.297],[134.098,35.306],[134.134,35.283],[134.163,35.22],[134.193,35.189],[134.268,35.208],[134.321,35.202],[134.337,35.22],[134.403,35.241],[134.435,35.229],[134.515,35.277],[134.503,35.319],[134.514,35.353],[134.472,35.381],[134.48,35.427],[134.44,35.443],[134.426,35.542],[134.405,35.59],[134.37,35.615]]]},"properties":{"shapeName":"Tottori Prefecture","shapeISO":"JP-31","shapeID":"47310658B78383189487115","shapeGroup":"JPN","shapeType":"ADM1"}},
{"type":"Feature","geometry":{"type":"MultiPolygon","coordinates":[[[[133.136,35.074],[133.14,35.118],[133.157,35.149],[133.195,35.17],[133.182,35.201],[133.153,35.219],[133.253,35.26],[133.311,35.268],[133.293,35.321],[133.296,35.349],[133.325,35.374],[133.309,35.431],[133.223,35.48],[133.199,35.526],[133.245,35.549],[133.268,35.579],[133.152,35.56],[133.125,35.576],[133.069,35.584],[133.031,35.543],[132.966,35.541],[132.975,35.52],[132.831,35.505],[132.79,35.481],[132.73,35.468],[132.647,35.438],[132.636,35.419],[132.673,35.397],[132.672,35.357],[132.646,35.305],[132.615,35.281],[132.556,35.265],[132.527,35.241],[132.467,35.217],[132.416,35.184],[132.389,35.132],[132.324,35.089],[132.31,35.057],[132.231,35.03],[132.146,34.965],[132.105,34.945],[131.991,34.829],[131.955,34.816],[131.94,34.789],[131.869,34.749],[131.85,34.712],[131.808,34.691],[131.747,34.676],[131.691,34.681],[131.695,34.621],[131.72,34.583],[131.695,34.524],[131.668,34.504],[131.699,34.477],[131.694,34.444],[131.713,34.428],[131.755,34.44],[131.796,34.433],[131.767,34.385],[131.775,34.338],[131.831,34.303],[131.86,34.305],[131.93,34.333],[131.959,34.306],[131.974,34.341],[132.014,34.382],[131.99,34.413],[132.039,34.469],[132.069,34.468],[132.047,34.5],[132.052,34.53],[132.084,34.538],[132.114,34.563],[132.13,34.595],[132.127,34.639],[132.162,34.683],[132.143,34.716],[132.222,34.75],[132.243,34.783],[132.278,34.797],[132.298,34.777],[132.374,34.801],[132.399,34.784],[132.437,34.821],[132.458,34.803],[132.538,34.795],[132.615,34.842],[132.659,34.832],[132.701,34.882],[132.636,34.899],[132.685,34.951],[132.75,34.96],[132.763,34.993],[132.861,35.096],[132.95,35.075],[133,35.097],[133.033,35.068],[133.061,35.081],[133.12,35.085],[133.136,35.074]]],[[[133.066,36.012],[133,36.032],[133.01,36.002],[133.066,36.012]]],[[[133.242,36.167],[133.293,36.179],[133.339,36.173],[133.338,36.208],[133.37,36.206],[133.379,36.276],[133.335,36.313],[133.28,36.34],[133.247,36.334],[133.207,36.309],[133.177,36.251],[133.185,36.215],[133.242,36.167]]],[[[133.068,36.035],[133.132,36.073],[133.126,36.111],[133.071,36.106],[133.08,36.069],[133.068,36.035]]],[[[132.978,36.052],[132.976,36.084],[133.007,36.092],[133.023,36.063],[133.057,36.083],[133.042,36.102],[133.058,36.132],[133.012,36.136],[132.966,36.103],[132.948,36.064],[132.978,36.052]]]]},"properties":{"shapeName":"Shimane","shapeISO":"JP-32","shapeID":"47310658B41093195623763","shapeGroup":"JPN","shapeType":"ADM1"}},
{"type":"Feature","geometry":{"type":"MultiPolygon","coordinates":[[[[139.681,37.847],[139.638,37.88],[139.625,37.918],[139.639,37.935],[139.639,37.986],[139.655,38.035],[139.693,38.057],[139.672,38.089],[139.692,38.113],[139.682,38.172],[139.713,38.207],[139.786,38.192],[139.858,38.23],[139.899,38.293],[139.816,38.356],[139.791,38.349],[139.732,38.372],[139.706,38.407],[139.719,38.429],[139.711,38.477],[139.722,38.496],[139.6,38.522],[139.548,38.553],[139.457,38.398],[139.45,38.361],[139.45,38.238],[139.429,38.18],[139.369,38.1],[139.278,38.023],[139.202,37.983],[139.072,37.95],[138.954,37.883],[138.879,37.846],[138.815,37.787],[138.785,37.718],[138.786,37.702],[138.748,37.606],[138.712,37.558],[138.67,37.534],[138.617,37.473],[138.557,37.381],[138.436,37.321],[138.332,37.237],[138.234,37.175],[138.169,37.162],[138.102,37.174],[138.048,37.127],[138.005,37.115],[137.914,37.061],[137.699,36.994],[137.635,36.98],[137.688,36.943],[137.711,36.944],[137.714,36.891],[137.732,36.874],[137.732,36.823],[137.762,36.766],[137.82,36.798],[137.878,36.873],[137.875,36.916],[137.921,36.92],[137.963,36.902],[137.991,36.911],[138.031,36.891],[138.003,36.826],[138.068,36.804],[138.112,36.849],[138.169,36.845],[138.213,36.868],[138.296,36.856],[138.296,36.911],[138.343,36.921],[138.396,36.996],[138.455,37.02],[138.526,37.03],[138.566,37.021],[138.587,36.988],[138.583,36.929],[138.625,36.882],[138.693,36.855],[138.696,36.808],[138.67,36.774],[138.696,36.739],[138.727,36.764],[138.767,36.747],[138.818,36.762],[138.829,36.795],[138.882,36.826],[138.929,36.833],[138.917,36.871],[138.932,36.893],[138.98,36.892],[138.964,36.951],[138.971,36.981],[139.031,36.984],[139.091,37.02],[139.097,37.059],[139.18,36.99],[139.183,36.962],[139.229,36.961],[139.232,36.94],[139.256,36.989],[139.243,37.015],[139.257,37.056],[139.237,37.12],[139.253,37.161],[139.227,37.203],[139.194,37.205],[139.165,37.237],[139.212,37.286],[139.234,37.344],[139.231,37.388],[139.208,37.396],[139.208,37.429],[139.236,37.445],[139.363,37.47],[139.406,37.466],[139.414,37.51],[139.457,37.518],[139.543,37.512],[139.57,37.539],[139.565,37.597],[139.549,37.61],[139.549,37.649],[139.605,37.674],[139.658,37.755],[139.722,37.809],[139.741,37.818],[139.721,37.84],[139.716,37.847],[139.715,37.853],[139.698,37.848],[139.681,37.847]]],[[[138.34,38.199],[138.233,38.062],[138.231,37.976],[138.255,37.965],[138.275,38.003],[138.314,38.002],[138.342,37.962],[138.307,37.941],[138.269,37.848],[138.217,37.838],[138.216,37.81],[138.244,37.802],[138.305,37.827],[138.36,37.83],[138.427,37.88],[138.464,37.893],[138.499,37.925],[138.521,37.979],[138.547,38.008],[138.572,38.062],[138.538,38.08],[138.481,38.062],[138.437,38.082],[138.435,38.115],[138.47,38.17],[138.503,38.241],[138.512,38.315],[138.494,38.332],[138.454,38.307],[138.429,38.254],[138.391,38.24],[138.34,38.199]]]]},"properties":{"shapeName":"Niigata","shapeISO":"JP-15","shapeID":"47310658B84734951454670","shapeGroup":"JPN","shapeType":"ADM1"}},
{"type":"Feature","geometry":{"type":"Polygon","coordinates":[[[137.562,35.289],[137.548,35.259],[137.579,35.219],[137.579,35.198],[137.704,35.234],[137.76,35.222],[137.774,35.203],[137.838,35.212],[137.872,35.219],[137.896,35.258],[137.967,35.283],[138.056,35.344],[138.141,35.37],[138.119,35.446],[138.157,35.46],[138.158,35.487],[138.138,35.522],[138.184,35.573],[138.219,35.645],[138.193,35.672],[138.18,35.714],[138.237,35.758],[138.185,35.791],[138.232,35.876],[138.284,35.859],[138.326,35.903],[138.37,35.971],[138.424,35.959],[138.454,35.938],[138.455,35.9],[138.49,35.896],[138.513,35.92],[138.603,35.91],[138.611,35.874],[138.657,35.876],[138.708,35.91],[138.729,35.909],[138.739,35.939],[138.713,35.985],[138.632,36.027],[138.644,36.05],[138.631,36.091],[138.634,36.134],[138.593,36.153],[138.631,36.173],[138.635,36.206],[138.602,36.249],[138.613,36.286],[138.645,36.293],[138.657,36.369],[138.648,36.409],[138.592,36.424],[138.529,36.403],[138.489,36.401],[138.457,36.42],[138.401,36.434],[138.404,36.522],[138.429,36.556],[138.429,36.598],[138.458,36.634],[138.524,36.65],[138.52,36.689],[138.544,36.704],[138.696,36.739],[138.67,36.774],[138.696,36.808],[138.693,36.855],[138.625,36.882],[138.583,36.929],[138.587,36.988],[138.566,37.021],[138.526,37.03],[138.455,37.02],[138.396,36.996],[138.343,36.921],[138.296,36.911],[138.296,36.856],[138.213,36.868],[138.169,36.845],[138.112,36.849],[138.068,36.804],[138.003,36.826],[138.031,36.891],[137.991,36.911],[137.963,36.902],[137.921,36.92],[137.875,36.916],[137.878,36.873],[137.82,36.798],[137.762,36.766],[137.75,36.705],[137.762,36.666],[137.745,36.61],[137.688,36.562],[137.676,36.511],[137.652,36.488],[137.655,36.459],[137.637,36.428],[137.587,36.39],[137.652,36.322],[137.648,36.289],[137.596,36.243],[137.579,36.198],[137.591,36.164],[137.554,36.137],[137.551,36.11],[137.61,36.078],[137.59,36.007],[137.543,35.983],[137.504,35.94],[137.477,35.894],[137.435,35.905],[137.381,35.892],[137.336,35.799],[137.394,35.797],[137.4,35.775],[137.46,35.761],[137.497,35.688],[137.545,35.651],[137.514,35.608],[137.565,35.566],[137.581,35.539],[137.629,35.507],[137.63,35.477],[137.593,35.447],[137.635,35.401],[137.591,35.394],[137.601,35.331],[137.557,35.31],[137.562,35.289]]]},"properties":{"shapeName":"Nagano","shapeISO":"JP-20","shapeID":"47310658B40291932252870","shapeGroup":"JPN","shapeType":"ADM1"}},
{"type":"Feature","geometry":{"type":"Polygon","coordinates":[[[136.673,35.135],[136.75,35.08],[136.771,35.021],[136.797,35.051],[136.83,35.05],[136.89,35.088],[136.84,34.99],[136.822,34.933],[136.822,34.884],[136.857,34.863],[136.867,34.839],[136.843,34.759],[136.873,34.729],[136.944,34.7],[136.972,34.717],[136.914,34.772],[136.931,34.846],[136.991,34.816],[137.026,34.778],[137.107,34.791],[137.153,34.782],[137.21,34.803],[137.31,34.805],[137.32,34.733],[137.345,34.724],[137.306,34.681],[137.301,34.728],[137.262,34.716],[137.258,34.696],[137.219,34.676],[137.146,34.653],[137.119,34.634],[137.09,34.657],[137.059,34.653],[137.021,34.58],[137.094,34.592],[137.157,34.593],[137.313,34.641],[137.485,34.674],[137.477,34.775],[137.503,34.833],[137.565,34.852],[137.634,34.885],[137.658,34.943],[137.676,34.945],[137.708,34.994],[137.705,35.015],[137.741,35.057],[137.801,35.106],[137.822,35.148],[137.81,35.175],[137.838,35.212],[137.774,35.203],[137.76,35.222],[137.704,35.234],[137.579,35.198],[137.579,35.219],[137.548,35.259],[137.562,35.289],[137.484,35.257],[137.436,35.225],[137.385,35.259],[137.31,35.288],[137.263,35.285],[137.224,35.256],[137.187,35.253],[137.165,35.283],[137.102,35.302],[137.028,35.376],[136.961,35.399],[136.922,35.379],[136.865,35.373],[136.834,35.356],[136.773,35.369],[136.726,35.296],[136.678,35.242],[136.673,35.135]]]},"properties":{"shapeName":"Aichi Prefecture","shapeISO":"JP-23","shapeID":"47310658B49885151916407","shapeGroup":"JPN","shapeType":"ADM1"}},
{"type":"Feature","geometry":{"type":"Polygon","coordinates":[[[138.944,35.855],[138.892,35.84],[138.845,35.867],[138.814,35.862],[138.779,35.9],[138.729,35.909],[138.708,35.91],[138.657,35.876],[138.611,35.874],[138.603,35.91],[138.513,35.92],[138.49,35.896],[138.455,35.9],[138.454,35.938],[138.424,35.959],[138.37,35.971],[138.326,35.903],[138.284,35.859],[138.232,35.876],[138.185,35.791],[138.237,35.758],[138.18,35.714],[138.193,35.672],[138.219,35.645],[138.26,35.553],[138.259,35.48],[138.244,35.454],[138.258,35.407],[138.251,35.364],[138.258,35.317],[138.284,35.304],[138.326,35.328],[138.368,35.31],[138.367,35.27],[138.386,35.246],[138.399,35.2],[138.427,35.183],[138.491,35.168],[138.532,35.223],[138.514,35.262],[138.512,35.314],[138.535,35.331],[138.532,35.409],[138.559,35.434],[138.597,35.433],[138.609,35.393],[138.671,35.393],[138.681,35.358],[138.799,35.377],[138.873,35.382],[138.916,35.401],[138.927,35.438],[138.959,35.462],[139.028,35.481],[139.086,35.512],[139.13,35.566],[139.134,35.617],[139.117,35.655],[139.131,35.672],[139.025,35.72],[138.993,35.755],[138.963,35.829],[138.944,35.855]]]},"properties":{"shapeName":"Yamanashi","shapeISO":"JP-19","shapeID":"47310658B89229150671737","shapeGroup":"JPN","shapeType":"ADM1"}},
{"type":"Feature","geometry":{"type":"Polygon","coordinates":[[[140.931,37.896],[140.915,37.976],[140.925,38.078],[140.943,38.136],[140.972,38.197],[141.03,38.276],[141.038,38.344],[141.074,38.378],[141.126,38.38],[141.144,38.36],[141.23,38.401],[141.293,38.414],[141.354,38.414],[141.366,38.39],[141.408,38.404],[141.465,38.341],[141.467,38.306],[141.537,38.301],[141.541,38.317],[141.517,38.395],[141.459,38.434],[141.498,38.449],[141.489,38.469],[141.539,38.503],[141.464,38.581],[141.504,38.595],[141.528,38.618],[141.51,38.637],[141.44,38.647],[141.492,38.691],[141.517,38.69],[141.53,38.748],[141.52,38.787],[141.59,38.822],[141.582,38.854],[141.633,38.896],[141.632,38.971],[141.567,38.996],[141.49,38.998],[141.489,38.907],[141.451,38.876],[141.464,38.853],[141.432,38.792],[141.379,38.796],[141.353,38.813],[141.305,38.793],[141.269,38.793],[141.258,38.762],[141.216,38.748],[141.206,38.769],[141.139,38.791],[141.109,38.825],[141.147,38.856],[141.14,38.878],[141.029,38.883],[140.984,38.876],[140.954,38.91],[140.874,38.932],[140.824,38.964],[140.774,38.958],[140.645,38.889],[140.614,38.894],[140.562,38.873],[140.547,38.889],[140.54,38.862],[140.591,38.836],[140.604,38.784],[140.635,38.761],[140.607,38.721],[140.623,38.693],[140.602,38.641],[140.537,38.635],[140.578,38.568],[140.556,38.53],[140.567,38.501],[140.604,38.482],[140.613,38.454],[140.58,38.437],[140.564,38.377],[140.526,38.358],[140.531,38.325],[140.492,38.302],[140.473,38.272],[140.471,38.214],[140.48,38.182],[140.417,38.103],[140.418,38.08],[140.374,38.057],[140.289,38.059],[140.276,38.036],[140.28,37.977],[140.349,37.95],[140.462,37.953],[140.489,37.899],[140.575,37.914],[140.683,37.88],[140.679,37.836],[140.695,37.805],[140.738,37.787],[140.773,37.797],[140.852,37.795],[140.856,37.891],[140.891,37.902],[140.931,37.896]]]},"properties":{"shapeName":"Miyagi","shapeISO":"JP-04","shapeID":"47310658B93104231283628","shapeGroup":"JPN","shapeType":"ADM1"}},
{"type":"Feature","geometry":{"type":"Polygon","coordinates":[[[140.28,37.977],[140.276,38.036],[140.289,38.059],[140.374,38.057],[140.418,38.08],[140.417,38.103],[140.48,38.182],[140.471,38.214],[140.473,38.272],[140.492,38.302],[140.531,38.325],[140.526,38.358],[140.564,38.377],[140.58,38.437],[140.613,38.454],[140.604,38.482],[140.567,38.501],[140.556,38.53],[140.578,38.568],[140.537,38.635],[140.602,38.641],[140.623,38.693],[140.607,38.721],[140.635,38.761],[140.604,38.784],[140.591,38.836],[140.54,38.862],[140.547,38.889],[140.494,38.899],[140.462,38.919],[140.451,38.972],[140.432,38.992],[140.376,38.994],[140.355,39.024],[140.311,39.014],[140.261,39.035],[140.201,39.036],[140.198,39.061],[140.152,39.048],[140.114,39.078],[140.076,39.086],[140.062,39.134],[140.008,39.123],[139.994,39.106],[139.948,39.117],[139.87,39.118],[139.879,39.096],[139.829,38.958],[139.813,38.935],[139.778,38.834],[139.747,38.775],[139.698,38.73],[139.61,38.669],[139.56,38.586],[139.548,38.553],[139.6,38.522],[139.722,38.496],[139.711,38.477],[139.719,38.429],[139.706,38.407],[139.732,38.372],[139.791,38.349],[139.816,38.356],[139.899,38.293],[139.858,38.23],[139.786,38.192],[139.713,38.207],[139.682,38.172],[139.692,38.113],[139.672,38.089],[139.693,38.057],[139.655,38.035],[139.639,37.986],[139.639,37.935],[139.625,37.918],[139.638,37.88],[139.681,37.847],[139.706,37.856],[139.716,37.854],[139.716,37.847],[139.721,37.84],[139.73,37.831],[139.741,37.82],[139.783,37.832],[139.813,37.804],[139.858,37.827],[139.879,37.81],[139.93,37.822],[139.986,37.76],[140.037,37.768],[140.087,37.758],[140.128,37.734],[140.166,37.757],[140.235,37.746],[140.282,37.798],[140.262,37.834],[140.281,37.941],[140.28,37.977]]]},"properties":{"shapeName":"Yamagata","shapeISO":"JP-06","shapeID":"47310658B1770087263252","shapeGroup":"JPN","shapeType":"ADM1"}},
{"type":"Feature","geometry":{"type":"Polygon","coordinates":[[[139.936,40.428],[140.011,40.375],[140.024,40.315],[139.991,40.171],[139.949,40.079],[139.889,40.003],[139.837,39.967],[139.802,39.957],[139.724,39.982],[139.695,39.999],[139.717,39.91],[139.743,39.868],[139.821,39.858],[139.863,39.898],[139.913,39.902],[139.964,39.882],[140.02,39.829],[140.049,39.774],[140.059,39.726],[140.062,39.62],[140.051,39.532],[140.024,39.415],[139.998,39.344],[139.965,39.294],[139.929,39.289],[139.895,39.211],[139.904,39.178],[139.87,39.118],[139.948,39.117],[139.994,39.106],[140.008,39.123],[140.062,39.134],[140.076,39.086],[140.114,39.078],[140.152,39.048],[140.198,39.061],[140.201,39.036],[140.261,39.035],[140.311,39.014],[140.355,39.024],[140.376,38.994],[140.432,38.992],[140.451,38.972],[140.462,38.919],[140.494,38.899],[140.547,38.889],[140.562,38.873],[140.614,38.894],[140.645,38.889],[140.774,38.958],[140.764,39],[140.81,39.057],[140.8,39.077],[140.753,39.086],[140.77,39.124],[140.749,39.138],[140.774,39.168],[140.765,39.198],[140.789,39.238],[140.718,39.273],[140.693,39.314],[140.703,39.344],[140.653,39.391],[140.685,39.425],[140.677,39.448],[140.713,39.494],[140.754,39.571],[140.805,39.612],[140.823,39.669],[140.798,39.741],[140.842,39.805],[140.783,39.828],[140.782,39.868],[140.826,39.886],[140.878,39.875],[140.848,39.958],[140.844,40.075],[140.875,40.095],[140.859,40.171],[140.893,40.192],[140.909,40.224],[140.955,40.248],[140.946,40.258],[140.96,40.326],[140.995,40.353],[140.972,40.431],[140.933,40.421],[140.871,40.436],[140.878,40.511],[140.811,40.487],[140.787,40.457],[140.692,40.427],[140.661,40.404],[140.599,40.433],[140.525,40.413],[140.481,40.442],[140.384,40.485],[140.299,40.446],[140.22,40.431],[140.185,40.443],[140.108,40.436],[140.094,40.459],[140.059,40.467],[140.022,40.43],[139.936,40.428]]]},"properties":{"shapeName":"Akita","shapeISO":"JP-05","shapeID":"47310658B79582216473080","shapeGroup":"JPN","shapeType":"ADM1"}},
{"type":"Feature","geometry":{"type":"Polygon","coordinates":[[[140.955,40.248],[140.909,40.224],[140.893,40.192],[140.859,40.171],[140.875,40.095],[140.844,40.075],[140.848,39.958],[140.878,39.875],[140.826,39.886],[140.782,39.868],[140.783,39.828],[140.842,39.805],[140.798,39.741],[140.823,39.669],[140.805,39.612],[140.754,39.571],[140.713,39.494],[140.677,39.448],[140.685,39.425],[140.653,39.391],[140.703,39.344],[140.693,39.314],[140.718,39.273],[140.789,39.238],[140.765,39.198],[140.774,39.168],[140.749,39.138],[140.77,39.124],[140.753,39.086],[140.8,39.077],[140.81,39.057],[140.764,39],[140.774,38.958],[140.824,38.964],[140.874,38.932],[140.954,38.91],[140.984,38.876],[141.029,38.883],[141.14,38.878],[141.147,38.856],[141.109,38.825],[141.139,38.791],[141.206,38.769],[141.216,38.748],[141.258,38.762],[141.269,38.793],[141.305,38.793],[141.353,38.813],[141.379,38.796],[141.432,38.792],[141.464,38.853],[141.451,38.876],[141.489,38.907],[141.49,38.998],[141.567,38.996],[141.632,38.971],[141.632,39.009],[141.671,39.005],[141.697,38.97],[141.72,38.997],[141.785,39.033],[141.818,39.023],[141.868,39.061],[141.812,39.086],[141.834,39.104],[141.883,39.09],[141.901,39.12],[141.837,39.147],[141.891,39.157],[141.893,39.2],[141.945,39.24],[141.907,39.309],[141.971,39.313],[141.915,39.346],[141.957,39.356],[141.938,39.385],[142.041,39.428],[142.06,39.469],[142.036,39.484],[141.98,39.439],[141.954,39.467],[142.029,39.508],[142.072,39.547],[142.034,39.574],[142.013,39.651],[141.971,39.626],[141.969,39.687],[141.996,39.778],[141.971,39.885],[141.941,39.916],[141.958,39.946],[141.956,39.984],[141.936,40.01],[141.907,40.011],[141.876,40.049],[141.833,40.075],[141.829,40.114],[141.861,40.164],[141.814,40.183],[141.799,40.204],[141.832,40.235],[141.755,40.369],[141.683,40.45],[141.581,40.398],[141.581,40.374],[141.537,40.347],[141.48,40.376],[141.434,40.374],[141.351,40.331],[141.316,40.373],[141.292,40.352],[141.248,40.341],[141.197,40.308],[141.173,40.31],[141.1,40.281],[141.11,40.261],[141.006,40.218],[140.969,40.226],[140.955,40.248]]]},"properties":{"shapeName":"Iwate","shapeISO":"JP-03","shapeID":"47310658B25007192225139","shapeGroup":"JPN","shapeType":"ADM1"}},
{"type":"Feature","geometry":{"type":"Polygon","coordinates":[[[137.587,36.39],[137.637,36.428],[137.655,36.459],[137.652,36.488],[137.676,36.511],[137.688,36.562],[137.745,36.61],[137.762,36.666],[137.75,36.705],[137.762,36.766],[137.732,36.823],[137.732,36.874],[137.714,36.891],[137.711,36.944],[137.688,36.943],[137.635,36.98],[137.575,36.964],[137.491,36.954],[137.435,36.93],[137.409,36.898],[137.418,36.872],[137.39,36.804],[137.332,36.762],[137.243,36.766],[137.182,36.757],[137.122,36.78],[137.085,36.784],[137.017,36.829],[136.99,36.856],[136.993,36.879],[137.033,36.924],[137.052,36.959],[136.987,36.967],[136.927,36.947],[136.879,36.906],[136.886,36.885],[136.862,36.86],[136.849,36.813],[136.853,36.77],[136.799,36.71],[136.823,36.681],[136.785,36.629],[136.794,36.576],[136.817,36.552],[136.795,36.511],[136.803,36.485],[136.787,36.44],[136.806,36.355],[136.785,36.344],[136.792,36.299],[136.826,36.303],[136.842,36.333],[136.907,36.361],[136.955,36.339],[137.003,36.287],[137.052,36.328],[137.066,36.375],[137.095,36.384],[137.112,36.415],[137.164,36.454],[137.209,36.432],[137.278,36.465],[137.317,36.461],[137.319,36.424],[137.395,36.456],[137.41,36.425],[137.461,36.412],[137.511,36.424],[137.541,36.391],[137.587,36.39]]]},"properties":{"shapeName":"Toyama","shapeISO":"JP-16","shapeID":"47310658B23327126724630","shapeGroup":"JPN","shapeType":"ADM1"}},
{"type":"Feature","geometry":{"type":"Polygon","coordinates":[[[138.916,35.401],[138.873,35.382],[138.799,35.377],[138.681,35.358],[138.671,35.393],[138.609,35.393],[138.597,35.433],[138.559,35.434],[138.532,35.409],[138.535,35.331],[138.512,35.314],[138.514,35.262],[138.532,35.223],[138.491,35.168],[138.427,35.183],[138.399,35.2],[138.386,35.246],[138.367,35.27],[138.368,35.31],[138.326,35.328],[138.284,35.304],[138.258,35.317],[138.251,35.364],[138.258,35.407],[138.244,35.454],[138.259,35.48],[138.26,35.553],[138.219,35.645],[138.184,35.573],[138.138,35.522],[138.158,35.487],[138.157,35.46],[138.119,35.446],[138.141,35.37],[138.056,35.344],[137.967,35.283],[137.896,35.258],[137.872,35.219],[137.838,35.212],[137.81,35.175],[137.822,35.148],[137.801,35.106],[137.741,35.057],[137.705,35.015],[137.708,34.994],[137.676,34.945],[137.658,34.943],[137.634,34.885],[137.565,34.852],[137.503,34.833],[137.477,34.775],[137.485,34.674],[137.568,34.679],[137.686,34.669],[137.796,34.645],[137.92,34.667],[137.973,34.665],[138.061,34.648],[138.192,34.6],[138.197,34.669],[138.227,34.727],[138.29,34.763],[138.338,34.829],[138.328,34.867],[138.355,34.913],[138.413,34.942],[138.501,34.974],[138.527,34.995],[138.5,35.03],[138.535,35.056],[138.574,35.11],[138.641,35.115],[138.714,35.136],[138.784,35.124],[138.845,35.095],[138.892,35.032],[138.845,35.014],[138.784,35.025],[138.762,34.972],[138.79,34.909],[138.756,34.885],[138.774,34.769],[138.739,34.706],[138.785,34.669],[138.771,34.649],[138.814,34.616],[138.851,34.612],[138.905,34.631],[138.93,34.66],[138.957,34.665],[138.993,34.718],[138.998,34.742],[139.059,34.784],[139.077,34.842],[139.13,34.878],[139.149,34.936],[139.129,34.969],[139.099,34.973],[139.083,35.001],[139.1,35.045],[139.075,35.047],[139.075,35.094],[139.112,35.141],[139.029,35.15],[139.029,35.17],[138.993,35.199],[138.975,35.264],[139.005,35.29],[139.011,35.338],[139.001,35.4],[138.916,35.401]]]},"properties":{"shapeName":"Shizuoka","shapeISO":"JP-22","shapeID":"47310658B25198997079345","shapeGroup":"JPN","shapeType":"ADM1"}},
{"type":"Feature","geometry":{"type":"MultiPolygon","coordinates":[[[[136.754,36.086],[136.798,36.173],[136.851,36.252],[136.815,36.266],[136.792,36.299],[136.785,36.344],[136.806,36.355],[136.787,36.44],[136.803,36.485],[136.795,36.511],[136.817,36.552],[136.794,36.576],[136.785,36.629],[136.823,36.681],[136.799,36.71],[136.853,36.77],[136.849,36.813],[136.862,36.86],[136.886,36.885],[136.879,36.906],[136.927,36.947],[136.987,36.967],[137.052,36.959],[137.046,37.038],[137.051,37.107],[137.021,37.101],[137.002,37.064],[136.973,37.047],[136.911,37.091],[136.888,37.068],[136.859,37.076],[136.869,37.113],[136.9,37.137],[136.884,37.164],[136.943,37.224],[137.011,37.183],[137.058,37.208],[137.099,37.279],[137.144,37.299],[137.233,37.297],[137.26,37.322],[137.237,37.381],[137.269,37.438],[137.345,37.442],[137.358,37.465],[137.351,37.502],[137.326,37.525],[137.275,37.533],[137.21,37.506],[137.111,37.487],[137.073,37.455],[136.924,37.395],[136.872,37.407],[136.756,37.365],[136.721,37.32],[136.734,37.28],[136.705,37.231],[136.68,37.207],[136.678,37.138],[136.727,37.135],[136.723,37.054],[136.766,37.003],[136.771,36.981],[136.749,36.929],[136.767,36.904],[136.744,36.828],[136.673,36.706],[136.629,36.649],[136.526,36.534],[136.404,36.409],[136.345,36.365],[136.299,36.352],[136.244,36.295],[136.269,36.266],[136.301,36.258],[136.336,36.185],[136.358,36.165],[136.409,36.172],[136.441,36.137],[136.497,36.15],[136.56,36.153],[136.674,36.067],[136.754,36.086]]],[[[136.934,37.14],[136.957,37.102],[136.995,37.118],[137.041,37.117],[137.051,37.157],[137.001,37.135],[136.969,37.152],[136.934,37.14]]]]},"properties":{"shapeName":"Ishikawa Prefecture","shapeISO":"JP-17","shapeID":"47310658B64524405341851","shapeGroup":"JPN","shapeType":"ADM1"}},
{"type":"Feature","geometry":{"type":"Polygon","coordinates":[[[134.403,35.241],[134.337,35.22],[134.321,35.202],[134.268,35.208],[134.193,35.189],[134.163,35.22],[134.134,35.283],[134.098,35.306],[134.07,35.297],[134.008,35.308],[134.015,35.35],[133.97,35.348],[133.93,35.331],[133.925,35.307],[133.862,35.293],[133.866,35.272],[133.818,35.253],[133.794,35.293],[133.749,35.317],[133.597,35.345],[133.577,35.314],[133.568,35.257],[133.517,35.241],[133.529,35.187],[133.501,35.193],[133.448,35.171],[133.396,35.181],[133.412,35.121],[133.326,35.093],[133.269,35.058],[133.322,35.006],[133.297,34.956],[133.309,34.937],[133.294,34.903],[133.342,34.83],[133.378,34.808],[133.365,34.767],[133.374,34.695],[133.403,34.672],[133.385,34.617],[133.422,34.587],[133.454,34.532],[133.447,34.48],[133.524,34.451],[133.592,34.471],[133.602,34.495],[133.691,34.512],[133.704,34.488],[133.76,34.486],[133.787,34.436],[133.83,34.473],[133.881,34.456],[133.933,34.451],[133.938,34.481],[133.969,34.53],[134.029,34.555],[134.041,34.587],[134.086,34.58],[134.179,34.63],[134.244,34.715],[134.279,34.734],[134.322,34.722],[134.317,34.802],[134.253,34.852],[134.263,34.884],[134.295,34.904],[134.254,34.946],[134.277,34.963],[134.282,34.997],[134.264,35.017],[134.305,35.04],[134.319,35.083],[134.35,35.091],[134.362,35.14],[134.394,35.153],[134.412,35.186],[134.383,35.194],[134.403,35.241]]]},"properties":{"shapeName":"Okayama Prefecture","shapeISO":"JP-33","shapeID":"47310658B14484689696833","shapeGroup":"JPN","shapeType":"ADM1"}},
{"type":"Feature","geometry":{"type":"Polygon","coordinates":[[[133.661,33.882],[133.677,33.859],[133.818,33.837],[133.838,33.845],[133.872,33.806],[133.913,33.791],[133.941,33.799],[133.96,33.835],[134.033,33.809],[134.058,33.781],[134.067,33.689],[134.126,33.696],[134.175,33.684],[134.151,33.631],[134.198,33.561],[134.274,33.561],[134.306,33.549],[134.318,33.582],[134.352,33.578],[134.39,33.623],[134.404,33.66],[134.438,33.663],[134.543,33.719],[134.57,33.759],[134.62,33.787],[134.75,33.834],[134.701,33.836],[134.691,33.852],[134.639,33.859],[134.699,33.906],[134.693,33.952],[134.67,33.959],[134.64,34.007],[134.593,34.007],[134.59,34.051],[134.608,34.103],[134.624,34.181],[134.559,34.221],[134.506,34.226],[134.44,34.208],[134.414,34.157],[134.367,34.179],[134.298,34.169],[134.26,34.184],[134.146,34.165],[134.123,34.119],[134.079,34.121],[133.994,34.073],[133.944,34.094],[133.855,34.104],[133.82,34.074],[133.778,34.079],[133.729,34.044],[133.721,34.022],[133.68,34.013],[133.692,33.962],[133.688,33.916],[133.661,33.882]]]},"properties":{"shapeName":"Tokushima Prefecture","shapeISO":"JP-36","shapeID":"47310658B83740553463450","shapeGroup":"JPN","shapeType":"ADM1"}},
{"type":"Feature","geometry":{"type":"Polygon","coordinates":[[[133.661,33.882],[133.583,33.868],[133.55,33.882],[133.492,33.832],[133.415,33.84],[133.391,33.824],[133.356,33.834],[133.326,33.815],[133.282,33.832],[133.256,33.792],[133.184,33.768],[133.158,33.75],[133.145,33.705],[133.119,33.689],[133.117,33.66],[133.075,33.651],[133.08,33.609],[133.048,33.583],[133.064,33.543],[133.038,33.526],[133.015,33.481],[132.959,33.466],[132.821,33.473],[132.825,33.423],[132.86,33.368],[132.89,33.358],[132.896,33.312],[132.788,33.268],[132.772,33.241],[132.776,33.206],[132.741,33.201],[132.728,33.17],[132.686,33.135],[132.64,33.173],[132.632,33.149],[132.664,33.108],[132.687,32.982],[132.678,32.943],[132.655,32.925],[132.716,32.913],[132.712,32.889],[132.665,32.86],[132.649,32.801],[132.658,32.782],[132.719,32.798],[132.757,32.753],[132.791,32.748],[132.839,32.781],[132.887,32.791],[132.943,32.769],[132.997,32.725],[133.023,32.729],[133.003,32.787],[132.965,32.799],[132.949,32.856],[133.009,32.881],[133.007,32.917],[132.988,32.933],[133.009,33.011],[133.04,33.039],[133.093,33.034],[133.105,33.072],[133.139,33.095],[133.171,33.15],[133.256,33.226],[133.264,33.257],[133.24,33.299],[133.262,33.369],[133.329,33.387],[133.346,33.401],[133.407,33.404],[133.436,33.438],[133.564,33.496],[133.593,33.517],[133.729,33.539],[133.754,33.521],[133.83,33.514],[133.935,33.487],[133.958,33.442],[134.031,33.412],[134.034,33.377],[134.102,33.328],[134.111,33.294],[134.141,33.295],[134.181,33.248],[134.186,33.294],[134.213,33.403],[134.242,33.464],[134.306,33.549],[134.274,33.561],[134.198,33.561],[134.151,33.631],[134.175,33.684],[134.126,33.696],[134.067,33.689],[134.058,33.781],[134.033,33.809],[133.96,33.835],[133.941,33.799],[133.913,33.791],[133.872,33.806],[133.838,33.845],[133.818,33.837],[133.677,33.859],[133.661,33.882]]]},"properties":{"shapeName":"Kochi Prefecture","shapeISO":"JP-39","shapeID":"47310658B3517091690","shapeGroup":"JPN","shapeType":"ADM1"}},
{"type":"Feature","geometry":{"type":"MultiPolygon","coordinates":[[[[133.067,34.236],[133.082,34.193],[133.11,34.191],[133.111,34.234],[133.067,34.236]]],[[[132.986,34.277],[132.99,34.225],[132.964,34.228],[132.959,34.191],[133.003,34.21],[133.033,34.209],[133.054,34.253],[133.028,34.294],[132.986,34.277]]],[[[133.68,34.013],[133.599,34.043],[133.541,34.003],[133.512,33.972],[133.395,33.991],[133.357,33.979],[133.321,33.994],[133.281,33.99],[133.236,33.952],[133.141,33.925],[133.099,33.942],[133.067,33.983],[133.019,34.064],[132.979,34.112],[132.924,34.116],[132.92,34.067],[132.854,34.045],[132.773,34],[132.772,33.962],[132.755,33.911],[132.71,33.905],[132.683,33.808],[132.7,33.77],[132.659,33.704],[132.586,33.654],[132.508,33.63],[132.433,33.568],[132.418,33.544],[132.295,33.487],[132.265,33.457],[132.247,33.465],[132.195,33.442],[132.156,33.407],[132.12,33.42],[132.124,33.365],[132.182,33.412],[132.237,33.425],[132.281,33.447],[132.3,33.475],[132.365,33.48],[132.416,33.443],[132.389,33.424],[132.389,33.367],[132.409,33.353],[132.369,33.325],[132.416,33.304],[132.489,33.324],[132.505,33.301],[132.504,33.268],[132.539,33.235],[132.531,33.214],[132.425,33.155],[132.473,33.136],[132.462,33.063],[132.506,33.005],[132.496,32.944],[132.471,32.935],[132.477,32.905],[132.51,32.903],[132.525,32.949],[132.587,32.942],[132.599,32.913],[132.655,32.925],[132.678,32.943],[132.687,32.982],[132.664,33.108],[132.632,33.149],[132.64,33.173],[132.686,33.135],[132.728,33.17],[132.741,33.201],[132.776,33.206],[132.772,33.241],[132.788,33.268],[132.896,33.312],[132.89,33.358],[132.86,33.368],[132.825,33.423],[132.821,33.473],[132.959,33.466],[133.015,33.481],[133.038,33.526],[133.064,33.543],[133.048,33.583],[133.08,33.609],[133.075,33.651],[133.117,33.66],[133.119,33.689],[133.145,33.705],[133.158,33.75],[133.184,33.768],[133.256,33.792],[133.282,33.832],[133.326,33.815],[133.356,33.834],[133.391,33.824],[133.415,33.84],[133.492,33.832],[133.55,33.882],[133.583,33.868],[133.661,33.882],[133.688,33.916],[133.692,33.962],[133.68,34.013]]],[[[132.643,33.962],[132.64,33.994],[132.61,33.993],[132.578,33.968],[132.604,33.95],[132.643,33.962]]],[[[133.067,34.192],[133.037,34.195],[133.019,34.139],[133.035,34.108],[133.087,34.157],[133.067,34.192]]]]},"properties":{"shapeName":"Ehime Prefecture","shapeISO":"JP-38","shapeID":"47310658B51488753471902","shapeGroup":"JPN","shapeType":"ADM1"}},
{"type":"Feature","geometry":{"type":"MultiPolygon","coordinates":[[[[134.44,34.208],[134.408,34.224],[134.39,34.255],[134.349,34.252],[134.307,34.278],[134.263,34.283],[134.257,34.346],[134.213,34.351],[134.155,34.338],[134.164,34.375],[134.124,34.38],[134.085,34.352],[134.003,34.359],[133.928,34.39],[133.895,34.355],[133.824,34.353],[133.821,34.319],[133.775,34.297],[133.701,34.235],[133.618,34.237],[133.61,34.223],[133.649,34.193],[133.638,34.087],[133.628,34.053],[133.599,34.043],[133.68,34.013],[133.721,34.022],[133.729,34.044],[133.778,34.079],[133.82,34.074],[133.855,34.104],[133.944,34.094],[133.994,34.073],[134.079,34.121],[134.123,34.119],[134.146,34.165],[134.26,34.184],[134.298,34.169],[134.367,34.179],[134.414,34.157],[134.44,34.208]]],[[[134.297,34.45],[134.349,34.46],[134.348,34.503],[134.36,34.534],[134.345,34.564],[134.284,34.546],[134.264,34.553],[134.23,34.527],[134.164,34.508],[134.182,34.487],[134.233,34.477],[134.243,34.459],[134.297,34.48],[134.297,34.45]]],[[[134.07,34.497],[134.042,34.479],[134.085,34.46],[134.103,34.479],[134.07,34.497]]]]},"properties":{"shapeName":"Kagawa Prefecture","shapeISO":"JP-37","shapeID":"47310658B61159371292051","shapeGroup":"JPN","shapeType":"ADM1"}},
{"type":"Feature","geometry":{"type":"MultiPolygon","coordinates":[[[[122.943,24.452],[122.967,24.438],[123.011,24.437],[123.043,24.46],[123.005,24.474],[122.963,24.473],[122.943,24.452]]],[[[124.684,24.64],[124.706,24.638],[124.727,24.667],[124.697,24.677],[124.684,24.64]]],[[[123.75,24.391],[123.753,24.353],[123.702,24.335],[123.662,24.309],[123.68,24.283],[123.833,24.272],[123.881,24.256],[123.912,24.325],[123.94,24.365],[123.868,24.404],[123.829,24.398],[123.783,24.438],[123.75,24.391]]],[[[124.312,24.609],[124.295,24.542],[124.23,24.495],[124.222,24.455],[124.084,24.452],[124.143,24.414],[124.116,24.374],[124.166,24.33],[124.215,24.355],[124.25,24.358],[124.259,24.413],[124.252,24.467],[124.282,24.488],[124.304,24.546],[124.335,24.571],[124.34,24.606],[124.312,24.609]]],[[[131.243,25.872],[131.226,25.87],[131.213,25.823],[131.255,25.817],[131.273,25.853],[131.243,25.872]]],[[[125.259,24.785],[125.278,24.773],[125.261,24.736],[125.305,24.713],[125.328,24.72],[125.454,24.736],[125.441,24.755],[125.355,24.789],[125.336,24.822],[125.296,24.845],[125.259,24.785]]],[[[125.156,24.857],[125.178,24.811],[125.216,24.807],[125.21,24.847],[125.156,24.857]]],[[[126.767,26.39],[126.71,26.368],[126.746,26.346],[126.801,26.293],[126.824,26.346],[126.781,26.39],[126.767,26.39]]],[[[127.749,26.719],[127.759,26.709],[127.828,26.71],[127.808,26.739],[127.759,26.737],[127.749,26.719]]],[[[127.736,26.367],[127.76,26.31],[127.751,26.29],[127.707,26.273],[127.637,26.199],[127.669,26.152],[127.657,26.084],[127.677,26.074],[127.734,26.099],[127.748,26.119],[127.792,26.135],[127.831,26.166],[127.821,26.191],[127.778,26.187],[127.758,26.208],[127.788,26.226],[127.816,26.305],[127.865,26.344],[127.89,26.312],[127.912,26.326],[127.873,26.36],[127.874,26.386],[127.841,26.406],[127.851,26.449],[127.885,26.458],[127.924,26.439],[128.001,26.483],[127.992,26.505],[128.053,26.52],[128.14,26.556],[128.152,26.598],[128.146,26.622],[128.239,26.632],[128.279,26.677],[128.294,26.718],[128.318,26.735],[128.326,26.782],[128.306,26.845],[128.262,26.866],[128.224,26.79],[128.144,26.708],[128.118,26.703],[128.08,26.644],[128.025,26.627],[127.984,26.651],[128.008,26.684],[127.959,26.707],[127.904,26.699],[127.874,26.685],[127.891,26.661],[127.878,26.641],[127.895,26.614],[127.983,26.585],[127.976,26.559],[127.921,26.529],[127.869,26.51],[127.798,26.437],[127.766,26.438],[127.714,26.419],[127.736,26.367]]]]},"properties":{"shapeName":"Okinawa Prefecture","shapeISO":"JP-47","shapeID":"47310658B31569081891025","shapeGroup":"JPN","shapeType":"ADM1"}},
{"type":"Feature","geometry":{"type":"MultiPolygon","coordinates":[[[[139.406,42.166],[139.423,42.137],[139.421,42.076],[139.45,42.061],[139.496,42.083],[139.52,42.136],[139.517,42.176],[139.545,42.203],[139.562,42.242],[139.469,42.218],[139.435,42.216],[139.406,42.166]]],[[[141.152,45.152],[141.238,45.097],[141.28,45.107],[141.33,45.15],[141.325,45.184],[141.269,45.236],[141.233,45.234],[141.194,45.259],[141.132,45.213],[141.152,45.152]]],[[[141.065,45.427],[140.998,45.435],[140.983,45.38],[141.002,45.328],[141.057,45.319],[141.054,45.389],[141.065,45.427]]],[[[140.346,43.198],[140.36,43.179],[140.42,43.147],[140.496,43.065],[140.528,43.003],[140.417,42.943],[140.347,42.857],[140.311,42.833],[140.304,42.777],[140.246,42.768],[140.224,42.805],[140.178,42.816],[140.144,42.755],[140.073,42.728],[140.046,42.694],[139.925,42.688],[139.856,42.65],[139.822,42.61],[139.853,42.466],[139.836,42.405],[139.781,42.352],[139.767,42.303],[139.774,42.259],[139.795,42.231],[139.877,42.211],[139.922,42.132],[139.992,42.128],[140.024,42.115],[140.122,42],[140.141,41.916],[140.122,41.823],[140.077,41.809],[140.068,41.761],[140.009,41.692],[139.983,41.608],[139.985,41.554],[140.027,41.462],[140.093,41.422],[140.129,41.431],[140.184,41.402],[140.216,41.41],[140.258,41.48],[140.337,41.507],[140.409,41.521],[140.437,41.548],[140.429,41.603],[140.435,41.665],[140.462,41.697],[140.518,41.702],[140.601,41.742],[140.622,41.805],[140.661,41.822],[140.701,41.816],[140.727,41.788],[140.923,41.74],[140.967,41.71],[141.023,41.718],[141.075,41.742],[141.11,41.785],[141.156,41.784],[141.185,41.815],[141.147,41.831],[141.149,41.854],[141.075,41.887],[140.996,41.9],[140.959,41.916],[140.891,41.998],[140.821,42.035],[140.803,42.077],[140.774,42.085],[140.759,42.117],[140.708,42.139],[140.579,42.108],[140.514,42.13],[140.384,42.223],[140.308,42.237],[140.285,42.256],[140.277,42.321],[140.289,42.363],[140.326,42.438],[140.359,42.487],[140.422,42.553],[140.474,42.589],[140.534,42.589],[140.583,42.566],[140.638,42.585],[140.703,42.585],[140.774,42.536],[140.783,42.504],[140.874,42.458],[140.901,42.416],[140.908,42.378],[140.934,42.364],[140.946,42.319],[140.995,42.301],[141.098,42.4],[141.159,42.442],[141.206,42.453],[141.348,42.542],[141.462,42.593],[141.524,42.612],[141.611,42.628],[141.666,42.631],[141.786,42.616],[141.89,42.582],[142.015,42.499],[142.076,42.47],[142.167,42.459],[142.278,42.377],[142.371,42.324],[142.431,42.308],[142.484,42.27],[142.584,42.244],[142.671,42.192],[142.762,42.174],[142.815,42.142],[142.965,42.118],[143,42.087],[143.062,42.065],[143.134,42.028],[143.164,41.983],[143.215,41.951],[143.244,41.966],[143.271,42.018],[143.308,42.046],[143.316,42.124],[143.336,42.202],[143.308,42.244],[143.325,42.308],[143.363,42.376],[143.444,42.489],[143.522,42.572],[143.632,42.67],[143.895,42.86],[144.04,42.938],[144.172,42.985],[144.276,43.004],[144.353,42.998],[144.375,42.967],[144.486,42.939],[144.63,42.951],[144.675,42.939],[144.782,42.934],[144.723,42.975],[144.745,43.023],[144.788,43.056],[144.825,43.059],[144.854,43.001],[144.884,42.985],[144.961,42.98],[145.025,43],[145.031,43.029],[145.088,43.049],[145.122,43.132],[145.169,43.15],[145.202,43.136],[145.29,43.172],[145.425,43.187],[145.533,43.189],[145.568,43.283],[145.598,43.286],[145.629,43.319],[145.671,43.317],[145.708,43.335],[145.753,43.339],[145.801,43.362],[145.757,43.399],[145.721,43.383],[145.651,43.391],[145.638,43.374],[145.553,43.318],[145.522,43.307],[145.493,43.267],[145.397,43.291],[145.318,43.348],[145.263,43.436],[145.245,43.524],[145.202,43.624],[145.136,43.653],[145.135,43.669],[145.069,43.748],[145.061,43.806],[145.084,43.821],[145.094,43.89],[145.155,43.983],[145.245,44.068],[145.24,44.089],[145.264,44.138],[145.307,44.169],[145.348,44.223],[145.362,44.272],[145.345,44.338],[145.329,44.345],[145.281,44.29],[145.228,44.249],[145.192,44.195],[145.127,44.166],[145.042,44.111],[144.945,44.04],[144.911,44.004],[144.849,43.974],[144.795,43.931],[144.719,43.92],[144.57,43.92],[144.492,43.928],[144.379,43.951],[144.299,43.982],[144.29,44.016],[144.255,44.038],[144.25,44.109],[144.205,44.102],[143.95,44.143],[143.789,44.18],[143.629,44.228],[143.486,44.279],[143.374,44.331],[143.355,44.365],[143.233,44.422],[143.23,44.433],[143.083,44.507],[142.99,44.56],[142.954,44.599],[142.863,44.675],[142.793,44.717],[142.738,44.761],[142.633,44.888],[142.588,44.919],[142.578,44.961],[142.545,44.986],[142.532,45.026],[142.414,45.115],[142.274,45.236],[142.168,45.34],[142.057,45.397],[142.019,45.454],[141.969,45.484],[141.937,45.523],[141.892,45.511],[141.879,45.461],[141.857,45.434],[141.799,45.407],[141.708,45.396],[141.648,45.449],[141.637,45.392],[141.657,45.37],[141.616,45.308],[141.615,45.281],[141.573,45.238],[141.569,45.198],[141.587,45.154],[141.678,45.007],[141.737,44.887],[141.778,44.757],[141.791,44.667],[141.786,44.581],[141.762,44.535],[141.761,44.472],[141.737,44.416],[141.71,44.393],[141.679,44.333],[141.649,44.314],[141.658,44.242],[141.662,44.023],[141.633,43.935],[141.598,43.884],[141.561,43.859],[141.51,43.856],[141.498,43.839],[141.434,43.826],[141.381,43.801],[141.329,43.725],[141.351,43.643],[141.386,43.589],[141.358,43.518],[141.428,43.419],[141.423,43.328],[141.395,43.295],[141.304,43.209],[141.224,43.164],[141.162,43.144],[141.089,43.171],[141.03,43.182],[140.978,43.239],[140.918,43.212],[140.791,43.195],[140.777,43.225],[140.708,43.253],[140.643,43.265],[140.607,43.296],[140.487,43.375],[140.43,43.33],[140.36,43.316],[140.327,43.218],[140.346,43.198]]]]},"properties":{"shapeName":"Hokkaido","shapeISO":"JP-01","shapeID":"47310658B99930143900280","shapeGroup":"JPN","shapeType":"ADM1"}},
{"type":"Feature","geometry":{"type":"MultiPolygon","coordinates":[[[[132.173,33.926],[132.2,33.872],[132.257,33.878],[132.289,33.902],[132.288,33.94],[132.245,33.963],[132.211,33.96],[132.173,33.926]]],[[[132.069,34.468],[132.039,34.469],[131.99,34.413],[132.014,34.382],[131.974,34.341],[131.959,34.306],[131.93,34.333],[131.86,34.305],[131.831,34.303],[131.775,34.338],[131.767,34.385],[131.796,34.433],[131.755,34.44],[131.713,34.428],[131.694,34.444],[131.699,34.477],[131.668,34.504],[131.695,34.524],[131.72,34.583],[131.695,34.621],[131.691,34.681],[131.646,34.652],[131.604,34.662],[131.588,34.624],[131.56,34.618],[131.555,34.58],[131.505,34.535],[131.453,34.517],[131.462,34.486],[131.377,34.411],[131.337,34.416],[131.307,34.383],[131.248,34.381],[131.196,34.394],[131.156,34.372],[131.128,34.412],[131.071,34.424],[131.034,34.385],[130.96,34.356],[130.891,34.347],[130.882,34.295],[130.867,34.288],[130.92,34.241],[130.933,34.189],[130.861,34.104],[130.882,34.075],[130.912,34.059],[130.913,33.955],[130.938,33.949],[130.996,33.989],[131.003,34.017],[131.047,34.042],[131.108,34.025],[131.122,34.003],[131.161,33.986],[131.158,33.953],[131.21,33.944],[131.268,33.923],[131.319,33.955],[131.394,34.026],[131.448,33.995],[131.484,34.028],[131.509,34.004],[131.54,33.997],[131.589,34.032],[131.635,34.047],[131.662,34.041],[131.704,34.056],[131.793,34.054],[131.821,34.028],[131.772,33.978],[131.816,33.969],[131.83,34.008],[131.856,34.008],[131.883,33.981],[131.96,33.948],[132.007,33.911],[132.053,33.916],[132.12,33.876],[132.116,33.843],[132.157,33.845],[132.128,33.888],[132.128,33.957],[132.189,33.965],[132.213,34.002],[132.22,34.049],[132.202,34.125],[132.248,34.133],[132.246,34.211],[132.207,34.203],[132.2,34.225],[132.157,34.229],[132.14,34.285],[132.085,34.358],[132.069,34.416],[132.081,34.443],[132.069,34.468]]]]},"properties":{"shapeName":"Yamaguchi","shapeISO":"JP-35","shapeID":"47310658B89542195514726","shapeGroup":"JPN","shapeType":"ADM1"}}
]}